{
  "type": "FeatureCollection",
  "features": [
    {
      "type": "Feature",
      "properties": {
        "label": "T1 Normal",
        "layer": "T1 Normal",
        "number": 1,
        "route_id": "M101-S-RushHour",
        "postboxes": 1,
        "revenue": 11.6,
        "address": "AMSTERDAM AV/W 165 ST"
      },
      "geometry": {
        "type": "Point",
        "coordinates": [
          -73.938646,
          40.837603
        ]
      }
    },
    {
      "type": "Feature",
      "properties": {
        "label": "T1 Normal",
        "layer": "T1 Normal",
        "number": 2,
        "route_id": "M101-S-RushHour",
        "postboxes": 1,
        "revenue": 8.7,
        "address": "AMSTERDAM AV/W 145 ST"
      },
      "geometry": {
        "type": "Point",
        "coordinates": [
          -73.947888,
          40.824949
        ]
      }
    },
    {
      "type": "Feature",
      "properties": {
        "label": "T1 Normal",
        "layer": "T1 Normal",
        "number": 4,
        "route_id": "M101-S-RushHour",
        "postboxes": 1,
        "revenue": 2.9,
        "address": "AMSTERDAM AV/W 129 ST"
      },
      "geometry": {
        "type": "Point",
        "coordinates": [
          -73.95525,
          40.814859
        ]
      }
    },
    {
      "type": "Feature",
      "properties": {
        "label": "T1 Normal",
        "layer": "T1 Normal",
        "number": 5,
        "route_id": "M101-S-RushHour",
        "postboxes": 1,
        "revenue": 14.5,
        "address": "W 125 ST/AMSTERDAM AV"
      },
      "geometry": {
        "type": "Point",
        "coordinates": [
          -73.955693,
          40.812602
        ]
      }
    },
    {
      "type": "Feature",
      "properties": {
        "label": "T1 Normal",
        "layer": "T1 Normal",
        "number": 6,
        "route_id": "M101-S-RushHour",
        "postboxes": 1,
        "revenue": 5.8,
        "address": "W 125 ST/MORNINGSIDE AV"
      },
      "geometry": {
        "type": "Point",
        "coordinates": [
          -73.954184,
          40.811402
        ]
      }
    },
    {
      "type": "Feature",
      "properties": {
        "label": "T1 Normal",
        "layer": "T1 Normal",
        "number": 7,
        "route_id": "M101-S-RushHour",
        "postboxes": 1,
        "revenue": 8.7,
        "address": "W 125 ST/FREDERICK DOUGLASS BLVD"
      },
      "geometry": {
        "type": "Point",
        "coordinates": [
          -73.950705,
          40.809908
        ]
      }
    },
    {
      "type": "Feature",
      "properties": {
        "label": "T1 Normal",
        "layer": "T1 Normal",
        "number": 8,
        "route_id": "M101-S-RushHour",
        "postboxes": 1,
        "revenue": 34.8,
        "address": "W 125 ST/ADAM C POWELL BLVD"
      },
      "geometry": {
        "type": "Point",
        "coordinates": [
          -73.947836,
          40.8087
        ]
      }
    },
    {
      "type": "Feature",
      "properties": {
        "label": "T1 Normal",
        "layer": "T1 Normal",
        "number": 9,
        "route_id": "M101-S-RushHour",
        "postboxes": 1,
        "revenue": 11.6,
        "address": "W 125 ST/MALCOLM X  BLVD"
      },
      "geometry": {
        "type": "Point",
        "coordinates": [
          -73.945026,
          40.807514
        ]
      }
    },
    {
      "type": "Feature",
      "properties": {
        "label": "T1 Normal",
        "layer": "T1 Normal",
        "number": 10,
        "route_id": "M101-S-RushHour",
        "postboxes": 1,
        "revenue": 8.7,
        "address": "E 125 ST/5 AV"
      },
      "geometry": {
        "type": "Point",
        "coordinates": [
          -73.941853,
          40.806201
        ]
      }
    },
    {
      "type": "Feature",
      "properties": {
        "label": "T1 Normal",
        "layer": "T1 Normal",
        "number": 11,
        "route_id": "M101-S-RushHour",
        "postboxes": 1,
        "revenue": 5.8,
        "address": "E 125 ST/MADISON AV"
      },
      "geometry": {
        "type": "Point",
        "coordinates": [
          -73.940296,
          40.805533
        ]
      }
    },
    {
      "type": "Feature",
      "properties": {
        "label": "T1 Normal",
        "layer": "T1 Normal",
        "number": 12,
        "route_id": "M101-S-RushHour",
        "postboxes": 1,
        "revenue": 24.65,
        "address": "E 125 ST/PARK AV"
      },
      "geometry": {
        "type": "Point",
        "coordinates": [
          -73.938583,
          40.804799
        ]
      }
    },
    {
      "type": "Feature",
      "properties": {
        "label": "T1 Normal",
        "layer": "T1 Normal",
        "number": 13,
        "route_id": "M101-S-RushHour",
        "postboxes": 1,
        "revenue": 26.1,
        "address": "LEXINGTON AV/E 124 ST"
      },
      "geometry": {
        "type": "Point",
        "coordinates": [
          -73.937851,
          40.803886
        ]
      }
    },
    {
      "type": "Feature",
      "properties": {
        "label": "T1 Normal",
        "layer": "T1 Normal",
        "number": 14,
        "route_id": "M101-S-RushHour",
        "postboxes": 1,
        "revenue": 2.9,
        "address": "LEXINGTON AV/E 116 ST"
      },
      "geometry": {
        "type": "Point",
        "coordinates": [
          -73.942022,
          40.798149
        ]
      }
    },
    {
      "type": "Feature",
      "properties": {
        "label": "T1 Normal",
        "layer": "T1 Normal",
        "number": 15,
        "route_id": "M101-S-RushHour",
        "postboxes": 1,
        "revenue": 5.8,
        "address": "LEXINGTON AV/E 106 ST"
      },
      "geometry": {
        "type": "Point",
        "coordinates": [
          -73.946585,
          40.791892
        ]
      }
    },
    {
      "type": "Feature",
      "properties": {
        "label": "T1 Normal",
        "layer": "T1 Normal",
        "number": 16,
        "route_id": "M101-S-RushHour",
        "postboxes": 1,
        "revenue": 5.8,
        "address": "LEXINGTON AV/E 100 ST"
      },
      "geometry": {
        "type": "Point",
        "coordinates": [
          -73.949209,
          40.78827
        ]
      }
    },
    {
      "type": "Feature",
      "properties": {
        "label": "T1 Normal",
        "layer": "T1 Normal",
        "number": 17,
        "route_id": "M101-S-RushHour",
        "postboxes": 1,
        "revenue": 6.77,
        "address": "LEXINGTON AV/E 96 ST"
      },
      "geometry": {
        "type": "Point",
        "coordinates": [
          -73.95133,
          40.78548
        ]
      }
    },
    {
      "type": "Feature",
      "properties": {
        "label": "T1 Normal",
        "layer": "T1 Normal",
        "number": 18,
        "route_id": "M101-S-RushHour",
        "postboxes": 1,
        "revenue": 23.2,
        "address": "LEXINGTON AV/E 86 ST"
      },
      "geometry": {
        "type": "Point",
        "coordinates": [
          -73.955739,
          40.779426
        ]
      }
    },
    {
      "type": "Feature",
      "properties": {
        "label": "T1 Normal",
        "layer": "T1 Normal",
        "number": 19,
        "route_id": "M101-S-RushHour",
        "postboxes": 1,
        "revenue": 6.77,
        "address": "LEXINGTON AV/E 79 ST"
      },
      "geometry": {
        "type": "Point",
        "coordinates": [
          -73.959031,
          40.774914
        ]
      }
    },
    {
      "type": "Feature",
      "properties": {
        "label": "T1 Normal",
        "layer": "T1 Normal",
        "number": 20,
        "route_id": "M101-S-RushHour",
        "postboxes": 1,
        "revenue": 4.35,
        "address": "LEXINGTON AV/E 72 ST"
      },
      "geometry": {
        "type": "Point",
        "coordinates": [
          -73.962352,
          40.770316
        ]
      }
    },
    {
      "type": "Feature",
      "properties": {
        "label": "T1 Normal",
        "layer": "T1 Normal",
        "number": 21,
        "route_id": "M101-S-RushHour",
        "postboxes": 1,
        "revenue": 9.43,
        "address": "LEXINGTON AV/E 68 ST"
      },
      "geometry": {
        "type": "Point",
        "coordinates": [
          -73.964248,
          40.767713
        ]
      }
    },
    {
      "type": "Feature",
      "properties": {
        "label": "T1 Normal",
        "layer": "T1 Normal",
        "number": 22,
        "route_id": "M101-S-RushHour",
        "postboxes": 1,
        "revenue": 9.43,
        "address": "LEXINGTON AV/E 59 ST"
      },
      "geometry": {
        "type": "Point",
        "coordinates": [
          -73.968336,
          40.762106
        ]
      }
    },
    {
      "type": "Feature",
      "properties": {
        "label": "T1 Outlier",
        "layer": "T1 Outlier",
        "number": 23,
        "route_id": "M101-S-RushHour",
        "postboxes": 1,
        "revenue": 7.25,
        "address": "LEXINGTON AV/E 50 ST"
      },
      "geometry": {
        "type": "Point",
        "coordinates": [
          -73.972382,
          40.756659
        ]
      }
    },
    {
      "type": "Feature",
      "properties": {
        "label": "T1 Significant",
        "layer": "T1 Significant",
        "number": 0,
        "route_id": "M101-S-RushHour",
        "postboxes": 1,
        "revenue": 0.0,
        "address": "AMSTERDAM AV/W 175 ST"
      },
      "geometry": {
        "type": "Point",
        "coordinates": [
          -73.934076,
          40.84381
        ]
      }
    },
    {
      "type": "Feature",
      "properties": {
        "label": "T1 Significant",
        "layer": "T1 Significant",
        "number": 3,
        "route_id": "M101-S-RushHour",
        "postboxes": 1,
        "revenue": 0.0,
        "address": "AMSTERDAM AV/W 140 ST"
      },
      "geometry": {
        "type": "Point",
        "coordinates": [
          -73.950244,
          40.821716
        ]
      }
    },
    {
      "type": "Feature",
      "properties": {
        "label": "T1 Significant",
        "layer": "T1 Significant",
        "number": 24,
        "route_id": "M101-S-RushHour",
        "postboxes": 1,
        "revenue": 0.97,
        "address": "LEXINGTON AV/E 42 ST"
      },
      "geometry": {
        "type": "Point",
        "coordinates": [
          -73.976286,
          40.751393
        ]
      }
    },
    {
      "type": "Feature",
      "properties": {
        "label": "T1 Significant",
        "layer": "T1 Significant",
        "number": 25,
        "route_id": "M101-S-RushHour",
        "postboxes": 1,
        "revenue": 1.93,
        "address": "LEXINGTON AV / E 34 ST"
      },
      "geometry": {
        "type": "Point",
        "coordinates": [
          -73.97997,
          40.746315
        ]
      }
    },
    {
      "type": "Feature",
      "properties": {
        "label": "T1 Significant",
        "layer": "T1 Significant",
        "number": 26,
        "route_id": "M101-S-RushHour",
        "postboxes": 1,
        "revenue": 2.17,
        "address": "3 AV/E 23 ST"
      },
      "geometry": {
        "type": "Point",
        "coordinates": [
          -73.983129,
          40.738982
        ]
      }
    },
    {
      "type": "Feature",
      "properties": {
        "label": "T1 Significant",
        "layer": "T1 Significant",
        "number": 27,
        "route_id": "M101-S-RushHour",
        "postboxes": 1,
        "revenue": 0.0,
        "address": "3 AV/E 14 ST"
      },
      "geometry": {
        "type": "Point",
        "coordinates": [
          -73.987502,
          40.732955
        ]
      }
    },
    {
      "type": "Feature",
      "properties": {
        "label": "T1 Significant",
        "layer": "T1 Significant",
        "number": 28,
        "route_id": "M101-S-RushHour",
        "postboxes": 1,
        "revenue": 1.45,
        "address": "3 AV/ASTOR PL"
      },
      "geometry": {
        "type": "Point",
        "coordinates": [
          -73.990259,
          40.729113
        ]
      }
    },
    {
      "type": "Feature",
      "properties": {
        "label": "T2 Normal",
        "layer": "T2 Normal",
        "number": 1,
        "route_id": "M101-S-RushHour",
        "postboxes": 1,
        "revenue": 11.6,
        "address": "AMSTERDAM AV/W 165 ST"
      },
      "geometry": {
        "type": "Point",
        "coordinates": [
          -73.938646,
          40.837603
        ]
      }
    },
    {
      "type": "Feature",
      "properties": {
        "label": "T2 Normal",
        "layer": "T2 Normal",
        "number": 2,
        "route_id": "M101-S-RushHour",
        "postboxes": 1,
        "revenue": 8.7,
        "address": "AMSTERDAM AV/W 145 ST"
      },
      "geometry": {
        "type": "Point",
        "coordinates": [
          -73.947888,
          40.824949
        ]
      }
    },
    {
      "type": "Feature",
      "properties": {
        "label": "T2 Normal",
        "layer": "T2 Normal",
        "number": 4,
        "route_id": "M101-S-RushHour",
        "postboxes": 1,
        "revenue": 2.9,
        "address": "AMSTERDAM AV/W 129 ST"
      },
      "geometry": {
        "type": "Point",
        "coordinates": [
          -73.95525,
          40.814859
        ]
      }
    },
    {
      "type": "Feature",
      "properties": {
        "label": "T2 Normal",
        "layer": "T2 Normal",
        "number": 5,
        "route_id": "M101-S-RushHour",
        "postboxes": 1,
        "revenue": 14.5,
        "address": "W 125 ST/AMSTERDAM AV"
      },
      "geometry": {
        "type": "Point",
        "coordinates": [
          -73.955693,
          40.812602
        ]
      }
    },
    {
      "type": "Feature",
      "properties": {
        "label": "T2 Normal",
        "layer": "T2 Normal",
        "number": 6,
        "route_id": "M101-S-RushHour",
        "postboxes": 1,
        "revenue": 5.8,
        "address": "W 125 ST/MORNINGSIDE AV"
      },
      "geometry": {
        "type": "Point",
        "coordinates": [
          -73.954184,
          40.811402
        ]
      }
    },
    {
      "type": "Feature",
      "properties": {
        "label": "T2 Normal",
        "layer": "T2 Normal",
        "number": 7,
        "route_id": "M101-S-RushHour",
        "postboxes": 1,
        "revenue": 8.7,
        "address": "W 125 ST/FREDERICK DOUGLASS BLVD"
      },
      "geometry": {
        "type": "Point",
        "coordinates": [
          -73.950705,
          40.809908
        ]
      }
    },
    {
      "type": "Feature",
      "properties": {
        "label": "T2 Normal",
        "layer": "T2 Normal",
        "number": 8,
        "route_id": "M101-S-RushHour",
        "postboxes": 1,
        "revenue": 34.8,
        "address": "W 125 ST/ADAM C POWELL BLVD"
      },
      "geometry": {
        "type": "Point",
        "coordinates": [
          -73.947836,
          40.8087
        ]
      }
    },
    {
      "type": "Feature",
      "properties": {
        "label": "T2 Normal",
        "layer": "T2 Normal",
        "number": 9,
        "route_id": "M101-S-RushHour",
        "postboxes": 1,
        "revenue": 11.6,
        "address": "W 125 ST/MALCOLM X  BLVD"
      },
      "geometry": {
        "type": "Point",
        "coordinates": [
          -73.945026,
          40.807514
        ]
      }
    },
    {
      "type": "Feature",
      "properties": {
        "label": "T2 Normal",
        "layer": "T2 Normal",
        "number": 10,
        "route_id": "M101-S-RushHour",
        "postboxes": 1,
        "revenue": 8.7,
        "address": "E 125 ST/5 AV"
      },
      "geometry": {
        "type": "Point",
        "coordinates": [
          -73.941853,
          40.806201
        ]
      }
    },
    {
      "type": "Feature",
      "properties": {
        "label": "T2 Normal",
        "layer": "T2 Normal",
        "number": 11,
        "route_id": "M101-S-RushHour",
        "postboxes": 1,
        "revenue": 5.8,
        "address": "E 125 ST/MADISON AV"
      },
      "geometry": {
        "type": "Point",
        "coordinates": [
          -73.940296,
          40.805533
        ]
      }
    },
    {
      "type": "Feature",
      "properties": {
        "label": "T2 Normal",
        "layer": "T2 Normal",
        "number": 12,
        "route_id": "M101-S-RushHour",
        "postboxes": 1,
        "revenue": 24.65,
        "address": "E 125 ST/PARK AV"
      },
      "geometry": {
        "type": "Point",
        "coordinates": [
          -73.938583,
          40.804799
        ]
      }
    },
    {
      "type": "Feature",
      "properties": {
        "label": "T2 Normal",
        "layer": "T2 Normal",
        "number": 13,
        "route_id": "M101-S-RushHour",
        "postboxes": 1,
        "revenue": 26.1,
        "address": "LEXINGTON AV/E 124 ST"
      },
      "geometry": {
        "type": "Point",
        "coordinates": [
          -73.937851,
          40.803886
        ]
      }
    },
    {
      "type": "Feature",
      "properties": {
        "label": "T2 Normal",
        "layer": "T2 Normal",
        "number": 14,
        "route_id": "M101-S-RushHour",
        "postboxes": 1,
        "revenue": 2.9,
        "address": "LEXINGTON AV/E 116 ST"
      },
      "geometry": {
        "type": "Point",
        "coordinates": [
          -73.942022,
          40.798149
        ]
      }
    },
    {
      "type": "Feature",
      "properties": {
        "label": "T2 Normal",
        "layer": "T2 Normal",
        "number": 15,
        "route_id": "M101-S-RushHour",
        "postboxes": 1,
        "revenue": 5.8,
        "address": "LEXINGTON AV/E 106 ST"
      },
      "geometry": {
        "type": "Point",
        "coordinates": [
          -73.946585,
          40.791892
        ]
      }
    },
    {
      "type": "Feature",
      "properties": {
        "label": "T2 Normal",
        "layer": "T2 Normal",
        "number": 16,
        "route_id": "M101-S-RushHour",
        "postboxes": 1,
        "revenue": 5.8,
        "address": "LEXINGTON AV/E 100 ST"
      },
      "geometry": {
        "type": "Point",
        "coordinates": [
          -73.949209,
          40.78827
        ]
      }
    },
    {
      "type": "Feature",
      "properties": {
        "label": "T2 Normal",
        "layer": "T2 Normal",
        "number": 17,
        "route_id": "M101-S-RushHour",
        "postboxes": 1,
        "revenue": 6.77,
        "address": "LEXINGTON AV/E 96 ST"
      },
      "geometry": {
        "type": "Point",
        "coordinates": [
          -73.95133,
          40.78548
        ]
      }
    },
    {
      "type": "Feature",
      "properties": {
        "label": "T2 Normal",
        "layer": "T2 Normal",
        "number": 18,
        "route_id": "M101-S-RushHour",
        "postboxes": 1,
        "revenue": 23.2,
        "address": "LEXINGTON AV/E 86 ST"
      },
      "geometry": {
        "type": "Point",
        "coordinates": [
          -73.955739,
          40.779426
        ]
      }
    },
    {
      "type": "Feature",
      "properties": {
        "label": "T2 Normal",
        "layer": "T2 Normal",
        "number": 19,
        "route_id": "M101-S-RushHour",
        "postboxes": 1,
        "revenue": 6.77,
        "address": "LEXINGTON AV/E 79 ST"
      },
      "geometry": {
        "type": "Point",
        "coordinates": [
          -73.959031,
          40.774914
        ]
      }
    },
    {
      "type": "Feature",
      "properties": {
        "label": "T2 Normal",
        "layer": "T2 Normal",
        "number": 20,
        "route_id": "M101-S-RushHour",
        "postboxes": 1,
        "revenue": 4.35,
        "address": "LEXINGTON AV/E 72 ST"
      },
      "geometry": {
        "type": "Point",
        "coordinates": [
          -73.962352,
          40.770316
        ]
      }
    },
    {
      "type": "Feature",
      "properties": {
        "label": "T2 Normal",
        "layer": "T2 Normal",
        "number": 21,
        "route_id": "M101-S-RushHour",
        "postboxes": 1,
        "revenue": 9.43,
        "address": "LEXINGTON AV/E 68 ST"
      },
      "geometry": {
        "type": "Point",
        "coordinates": [
          -73.964248,
          40.767713
        ]
      }
    },
    {
      "type": "Feature",
      "properties": {
        "label": "T2 Normal",
        "layer": "T2 Normal",
        "number": 22,
        "route_id": "M101-S-RushHour",
        "postboxes": 1,
        "revenue": 9.43,
        "address": "LEXINGTON AV/E 59 ST"
      },
      "geometry": {
        "type": "Point",
        "coordinates": [
          -73.968336,
          40.762106
        ]
      }
    },
    {
      "type": "Feature",
      "properties": {
        "label": "T2 Outlier",
        "layer": "T2 Outlier",
        "number": 3,
        "route_id": "M101-S-RushHour",
        "postboxes": 1,
        "revenue": 0.0,
        "address": "AMSTERDAM AV/W 140 ST"
      },
      "geometry": {
        "type": "Point",
        "coordinates": [
          -73.950244,
          40.821716
        ]
      }
    },
    {
      "type": "Feature",
      "properties": {
        "label": "T2 Outlier",
        "layer": "T2 Outlier",
        "number": 23,
        "route_id": "M101-S-RushHour",
        "postboxes": 1,
        "revenue": 7.25,
        "address": "LEXINGTON AV/E 50 ST"
      },
      "geometry": {
        "type": "Point",
        "coordinates": [
          -73.972382,
          40.756659
        ]
      }
    },
    {
      "type": "Feature",
      "properties": {
        "label": "T2 Significant",
        "layer": "T2 Significant",
        "number": 0,
        "route_id": "M101-S-RushHour",
        "postboxes": 1,
        "revenue": 0.0,
        "address": "AMSTERDAM AV/W 175 ST"
      },
      "geometry": {
        "type": "Point",
        "coordinates": [
          -73.934076,
          40.84381
        ]
      }
    },
    {
      "type": "Feature",
      "properties": {
        "label": "T2 Significant",
        "layer": "T2 Significant",
        "number": 24,
        "route_id": "M101-S-RushHour",
        "postboxes": 1,
        "revenue": 0.97,
        "address": "LEXINGTON AV/E 42 ST"
      },
      "geometry": {
        "type": "Point",
        "coordinates": [
          -73.976286,
          40.751393
        ]
      }
    },
    {
      "type": "Feature",
      "properties": {
        "label": "T2 Significant",
        "layer": "T2 Significant",
        "number": 25,
        "route_id": "M101-S-RushHour",
        "postboxes": 1,
        "revenue": 1.93,
        "address": "LEXINGTON AV / E 34 ST"
      },
      "geometry": {
        "type": "Point",
        "coordinates": [
          -73.97997,
          40.746315
        ]
      }
    },
    {
      "type": "Feature",
      "properties": {
        "label": "T2 Significant",
        "layer": "T2 Significant",
        "number": 26,
        "route_id": "M101-S-RushHour",
        "postboxes": 1,
        "revenue": 2.17,
        "address": "3 AV/E 23 ST"
      },
      "geometry": {
        "type": "Point",
        "coordinates": [
          -73.983129,
          40.738982
        ]
      }
    },
    {
      "type": "Feature",
      "properties": {
        "label": "T2 Significant",
        "layer": "T2 Significant",
        "number": 27,
        "route_id": "M101-S-RushHour",
        "postboxes": 1,
        "revenue": 0.0,
        "address": "3 AV/E 14 ST"
      },
      "geometry": {
        "type": "Point",
        "coordinates": [
          -73.987502,
          40.732955
        ]
      }
    },
    {
      "type": "Feature",
      "properties": {
        "label": "T2 Significant",
        "layer": "T2 Significant",
        "number": 28,
        "route_id": "M101-S-RushHour",
        "postboxes": 1,
        "revenue": 1.45,
        "address": "3 AV/ASTOR PL"
      },
      "geometry": {
        "type": "Point",
        "coordinates": [
          -73.990259,
          40.729113
        ]
      }
    }
  ]
}