{
  "type": "FeatureCollection",
  "features": [
    {
      "type": "Feature",
      "properties": {
        "label": "T1 Normal",
        "layer": "T1 Normal",
        "number": 1,
        "route_id": "BX19-S-RushHour",
        "postboxes": 1,
        "revenue": 56.19,
        "address": "SOUTHERN BLVD/EAST FORDHAM RD"
      },
      "geometry": {
        "type": "Point",
        "coordinates": [
          -73.880972,
          40.856252
        ]
      }
    },
    {
      "type": "Feature",
      "properties": {
        "label": "T1 Normal",
        "layer": "T1 Normal",
        "number": 2,
        "route_id": "BX19-S-RushHour",
        "postboxes": 1,
        "revenue": 21.02,
        "address": "SOUTHERN BLVD/E 187 ST"
      },
      "geometry": {
        "type": "Point",
        "coordinates": [
          -73.881852,
          40.853173
        ]
      }
    },
    {
      "type": "Feature",
      "properties": {
        "label": "T1 Normal",
        "layer": "T1 Normal",
        "number": 3,
        "route_id": "BX19-S-RushHour",
        "postboxes": 1,
        "revenue": 14.5,
        "address": "SOUTHERN BLVD/E 183 ST"
      },
      "geometry": {
        "type": "Point",
        "coordinates": [
          -73.882488,
          40.850918
        ]
      }
    },
    {
      "type": "Feature",
      "properties": {
        "label": "T1 Normal",
        "layer": "T1 Normal",
        "number": 4,
        "route_id": "BX19-S-RushHour",
        "postboxes": 1,
        "revenue": 12.43,
        "address": "SOUTHERN BLVD/E 182 ST"
      },
      "geometry": {
        "type": "Point",
        "coordinates": [
          -73.883339,
          40.847976
        ]
      }
    },
    {
      "type": "Feature",
      "properties": {
        "label": "T1 Normal",
        "layer": "T1 Normal",
        "number": 5,
        "route_id": "BX19-S-RushHour",
        "postboxes": 1,
        "revenue": 29.97,
        "address": "SOUTHERN BLVD/E 180 ST"
      },
      "geometry": {
        "type": "Point",
        "coordinates": [
          -73.884499,
          40.846138
        ]
      }
    },
    {
      "type": "Feature",
      "properties": {
        "label": "T1 Normal",
        "layer": "T1 Normal",
        "number": 6,
        "route_id": "BX19-S-RushHour",
        "postboxes": 1,
        "revenue": 27.71,
        "address": "SOUTHERN BLVD/EAST TREMONT AV"
      },
      "geometry": {
        "type": "Point",
        "coordinates": [
          -73.885763,
          40.842926
        ]
      }
    },
    {
      "type": "Feature",
      "properties": {
        "label": "T1 Normal",
        "layer": "T1 Normal",
        "number": 7,
        "route_id": "BX19-S-RushHour",
        "postboxes": 1,
        "revenue": 5.32,
        "address": "SOUTHERN BLVD/E 176 St"
      },
      "geometry": {
        "type": "Point",
        "coordinates": [
          -73.886237,
          40.840198
        ]
      }
    },
    {
      "type": "Feature",
      "properties": {
        "label": "T1 Normal",
        "layer": "T1 Normal",
        "number": 8,
        "route_id": "BX19-S-RushHour",
        "postboxes": 1,
        "revenue": 18.27,
        "address": "SOUTHERN BLVD/E 174 ST"
      },
      "geometry": {
        "type": "Point",
        "coordinates": [
          -73.887719,
          40.837467
        ]
      }
    },
    {
      "type": "Feature",
      "properties": {
        "label": "T1 Normal",
        "layer": "T1 Normal",
        "number": 9,
        "route_id": "BX19-S-RushHour",
        "postboxes": 1,
        "revenue": 9.57,
        "address": "SOUTHERN BLVD/E 172 ST"
      },
      "geometry": {
        "type": "Point",
        "coordinates": [
          -73.889764,
          40.834168
        ]
      }
    },
    {
      "type": "Feature",
      "properties": {
        "label": "T1 Normal",
        "layer": "T1 Normal",
        "number": 10,
        "route_id": "BX19-S-RushHour",
        "postboxes": 1,
        "revenue": 6.96,
        "address": "SOUTHERN BLVD/JENNINGS ST"
      },
      "geometry": {
        "type": "Point",
        "coordinates": [
          -73.890724,
          40.832528
        ]
      }
    },
    {
      "type": "Feature",
      "properties": {
        "label": "T1 Normal",
        "layer": "T1 Normal",
        "number": 11,
        "route_id": "BX19-S-RushHour",
        "postboxes": 1,
        "revenue": 16.82,
        "address": "SOUTHERN BLVD/FREEMAN ST"
      },
      "geometry": {
        "type": "Point",
        "coordinates": [
          -73.891908,
          40.830102
        ]
      }
    },
    {
      "type": "Feature",
      "properties": {
        "label": "T1 Normal",
        "layer": "T1 Normal",
        "number": 12,
        "route_id": "BX19-S-RushHour",
        "postboxes": 1,
        "revenue": 7.73,
        "address": "SOUTHERN BLVD/E 167 ST"
      },
      "geometry": {
        "type": "Point",
        "coordinates": [
          -73.891991,
          40.826905
        ]
      }
    },
    {
      "type": "Feature",
      "properties": {
        "label": "T1 Normal",
        "layer": "T1 Normal",
        "number": 13,
        "route_id": "BX19-S-RushHour",
        "postboxes": 1,
        "revenue": 21.27,
        "address": "SOUTHERN BLVD/WESTCHESTER AV"
      },
      "geometry": {
        "type": "Point",
        "coordinates": [
          -73.891944,
          40.82437
        ]
      }
    },
    {
      "type": "Feature",
      "properties": {
        "label": "T1 Normal",
        "layer": "T1 Normal",
        "number": 14,
        "route_id": "BX19-S-RushHour",
        "postboxes": 1,
        "revenue": 7.25,
        "address": "SOUTHERN BLVD/ALDUS ST"
      },
      "geometry": {
        "type": "Point",
        "coordinates": [
          -73.891817,
          40.822869
        ]
      }
    },
    {
      "type": "Feature",
      "properties": {
        "label": "T1 Normal",
        "layer": "T1 Normal",
        "number": 15,
        "route_id": "BX19-S-RushHour",
        "postboxes": 1,
        "revenue": 45.11,
        "address": "SOUTHERN BLVD/E 163 ST"
      },
      "geometry": {
        "type": "Point",
        "coordinates": [
          -73.891773,
          40.820842
        ]
      }
    },
    {
      "type": "Feature",
      "properties": {
        "label": "T1 Normal",
        "layer": "T1 Normal",
        "number": 16,
        "route_id": "BX19-S-RushHour",
        "postboxes": 1,
        "revenue": 5.44,
        "address": "SOUTHERN BLVD/TIFFANY ST"
      },
      "geometry": {
        "type": "Point",
        "coordinates": [
          -73.894129,
          40.818478
        ]
      }
    },
    {
      "type": "Feature",
      "properties": {
        "label": "T1 Normal",
        "layer": "T1 Normal",
        "number": 17,
        "route_id": "BX19-S-RushHour",
        "postboxes": 1,
        "revenue": 10.73,
        "address": "SOUTHERN BLVD/LONGWOOD AV"
      },
      "geometry": {
        "type": "Point",
        "coordinates": [
          -73.896607,
          40.816076
        ]
      }
    },
    {
      "type": "Feature",
      "properties": {
        "label": "T1 Normal",
        "layer": "T1 Normal",
        "number": 18,
        "route_id": "BX19-S-RushHour",
        "postboxes": 1,
        "revenue": 5.8,
        "address": "SOUTHERN BLVD/E 156 ST"
      },
      "geometry": {
        "type": "Point",
        "coordinates": [
          -73.898025,
          40.81471
        ]
      }
    },
    {
      "type": "Feature",
      "properties": {
        "label": "T1 Normal",
        "layer": "T1 Normal",
        "number": 19,
        "route_id": "BX19-S-RushHour",
        "postboxes": 1,
        "revenue": 11.31,
        "address": "SOUTHERN BLVD/AVENUE SAINT JOHN"
      },
      "geometry": {
        "type": "Point",
        "coordinates": [
          -73.901337,
          40.812995
        ]
      }
    },
    {
      "type": "Feature",
      "properties": {
        "label": "T1 Normal",
        "layer": "T1 Normal",
        "number": 20,
        "route_id": "BX19-S-RushHour",
        "postboxes": 1,
        "revenue": 12.65,
        "address": "SOUTHERN BLVD/E 149 ST"
      },
      "geometry": {
        "type": "Point",
        "coordinates": [
          -73.903953,
          40.812224
        ]
      }
    },
    {
      "type": "Feature",
      "properties": {
        "label": "T1 Normal",
        "layer": "T1 Normal",
        "number": 21,
        "route_id": "BX19-S-RushHour",
        "postboxes": 1,
        "revenue": 26.82,
        "address": "E 149 ST/TINTON AV"
      },
      "geometry": {
        "type": "Point",
        "coordinates": [
          -73.906146,
          40.812659
        ]
      }
    },
    {
      "type": "Feature",
      "properties": {
        "label": "T1 Normal",
        "layer": "T1 Normal",
        "number": 22,
        "route_id": "BX19-S-RushHour",
        "postboxes": 1,
        "revenue": 21.02,
        "address": "E 149 ST/CONCORD AV"
      },
      "geometry": {
        "type": "Point",
        "coordinates": [
          -73.90855,
          40.813155
        ]
      }
    },
    {
      "type": "Feature",
      "properties": {
        "label": "T1 Normal",
        "layer": "T1 Normal",
        "number": 23,
        "route_id": "BX19-S-RushHour",
        "postboxes": 1,
        "revenue": 13.53,
        "address": "E 149 ST/TRINITY AV"
      },
      "geometry": {
        "type": "Point",
        "coordinates": [
          -73.910473,
          40.813559
        ]
      }
    },
    {
      "type": "Feature",
      "properties": {
        "label": "T1 Normal",
        "layer": "T1 Normal",
        "number": 24,
        "route_id": "BX19-S-RushHour",
        "postboxes": 1,
        "revenue": 10.63,
        "address": "E 149 ST/SAINT ANN'S AV"
      },
      "geometry": {
        "type": "Point",
        "coordinates": [
          -73.913289,
          40.814424
        ]
      }
    },
    {
      "type": "Feature",
      "properties": {
        "label": "T1 Normal",
        "layer": "T1 Normal",
        "number": 25,
        "route_id": "BX19-S-RushHour",
        "postboxes": 1,
        "revenue": 11.89,
        "address": "E 149 ST/BROOK AV"
      },
      "geometry": {
        "type": "Point",
        "coordinates": [
          -73.915301,
          40.815166
        ]
      }
    },
    {
      "type": "Feature",
      "properties": {
        "label": "T1 Normal",
        "layer": "T1 Normal",
        "number": 26,
        "route_id": "BX19-S-RushHour",
        "postboxes": 1,
        "revenue": 62.06,
        "address": "E 149 ST/MELROSE AV"
      },
      "geometry": {
        "type": "Point",
        "coordinates": [
          -73.918103,
          40.81628
        ]
      }
    },
    {
      "type": "Feature",
      "properties": {
        "label": "T1 Normal",
        "layer": "T1 Normal",
        "number": 27,
        "route_id": "BX19-S-RushHour",
        "postboxes": 1,
        "revenue": 21.91,
        "address": "E 149 ST/COURTLANDT AV"
      },
      "geometry": {
        "type": "Point",
        "coordinates": [
          -73.919846,
          40.816745
        ]
      }
    },
    {
      "type": "Feature",
      "properties": {
        "label": "T1 Normal",
        "layer": "T1 Normal",
        "number": 28,
        "route_id": "BX19-S-RushHour",
        "postboxes": 1,
        "revenue": 37.17,
        "address": "E 149 ST/MORRIS AV"
      },
      "geometry": {
        "type": "Point",
        "coordinates": [
          -73.923013,
          40.817533
        ]
      }
    },
    {
      "type": "Feature",
      "properties": {
        "label": "T1 Normal",
        "layer": "T1 Normal",
        "number": 29,
        "route_id": "BX19-S-RushHour",
        "postboxes": 1,
        "revenue": 39.73,
        "address": "E 149 ST/GRAND CONCOURSE"
      },
      "geometry": {
        "type": "Point",
        "coordinates": [
          -73.927078,
          40.818589
        ]
      }
    },
    {
      "type": "Feature",
      "properties": {
        "label": "T1 Normal",
        "layer": "T1 Normal",
        "number": 30,
        "route_id": "BX19-S-RushHour",
        "postboxes": 1,
        "revenue": 28.03,
        "address": "E 149 ST/GERARD AV"
      },
      "geometry": {
        "type": "Point",
        "coordinates": [
          -73.929075,
          40.819092
        ]
      }
    },
    {
      "type": "Feature",
      "properties": {
        "label": "T1 Normal",
        "layer": "T1 Normal",
        "number": 31,
        "route_id": "BX19-S-RushHour",
        "postboxes": 1,
        "revenue": 28.71,
        "address": "W 145 ST/MALCOLM X BLVD"
      },
      "geometry": {
        "type": "Point",
        "coordinates": [
          -73.936347,
          40.820557
        ]
      }
    },
    {
      "type": "Feature",
      "properties": {
        "label": "T1 Normal",
        "layer": "T1 Normal",
        "number": 32,
        "route_id": "BX19-S-RushHour",
        "postboxes": 1,
        "revenue": 8.34,
        "address": "W 145 ST/ADAM C POWELL BLVD"
      },
      "geometry": {
        "type": "Point",
        "coordinates": [
          -73.938795,
          40.821618
        ]
      }
    },
    {
      "type": "Feature",
      "properties": {
        "label": "T1 Normal",
        "layer": "T1 Normal",
        "number": 33,
        "route_id": "BX19-S-RushHour",
        "postboxes": 1,
        "revenue": 24.07,
        "address": "W 145 ST/FREDERICK DOUGLASS BLVD"
      },
      "geometry": {
        "type": "Point",
        "coordinates": [
          -73.941703,
          40.822843
        ]
      }
    },
    {
      "type": "Feature",
      "properties": {
        "label": "T1 Normal",
        "layer": "T1 Normal",
        "number": 34,
        "route_id": "BX19-S-RushHour",
        "postboxes": 1,
        "revenue": 14.18,
        "address": "W 145 ST/SAINT NICHOLAS AV"
      },
      "geometry": {
        "type": "Point",
        "coordinates": [
          -73.944516,
          40.82403
        ]
      }
    },
    {
      "type": "Feature",
      "properties": {
        "label": "T1 Outlier",
        "layer": "T1 Outlier",
        "number": 35,
        "route_id": "BX19-S-RushHour",
        "postboxes": 1,
        "revenue": 3.48,
        "address": "W 145 ST/CONVENT AV"
      },
      "geometry": {
        "type": "Point",
        "coordinates": [
          -73.946033,
          40.824665
        ]
      }
    },
    {
      "type": "Feature",
      "properties": {
        "label": "T1 Outlier",
        "layer": "T1 Outlier",
        "number": 36,
        "route_id": "BX19-S-RushHour",
        "postboxes": 1,
        "revenue": 3.22,
        "address": "W 145 ST/AMSTERDAM AV"
      },
      "geometry": {
        "type": "Point",
        "coordinates": [
          -73.947373,
          40.825231
        ]
      }
    },
    {
      "type": "Feature",
      "properties": {
        "label": "T1 Significant",
        "layer": "T1 Significant",
        "number": 0,
        "route_id": "BX19-S-RushHour",
        "postboxes": 1,
        "revenue": 5.08,
        "address": "SOUTHERN BLVD/BOTANICAL GARDENS"
      },
      "geometry": {
        "type": "Point",
        "coordinates": [
          -73.880732,
          40.861247
        ]
      }
    },
    {
      "type": "Feature",
      "properties": {
        "label": "T1 Significant",
        "layer": "T1 Significant",
        "number": 37,
        "route_id": "BX19-S-RushHour",
        "postboxes": 1,
        "revenue": 0.79,
        "address": "W 145 ST/BROADWAY"
      },
      "geometry": {
        "type": "Point",
        "coordinates": [
          -73.950176,
          40.826407
        ]
      }
    },
    {
      "type": "Feature",
      "properties": {
        "label": "T1 Significant",
        "layer": "T1 Significant",
        "number": 38,
        "route_id": "BX19-S-RushHour",
        "postboxes": 1,
        "revenue": 0.0,
        "address": "W 145 ST/RIVERSIDE DR"
      },
      "geometry": {
        "type": "Point",
        "coordinates": [
          -73.951571,
          40.827014
        ]
      }
    },
    {
      "type": "Feature",
      "properties": {
        "label": "T1 Significant",
        "layer": "T1 Significant",
        "number": 39,
        "route_id": "BX19-S-RushHour",
        "postboxes": 1,
        "revenue": 2.17,
        "address": "RIVERBANK STATE PARK RDWY/RIVERBANK STATE PARK"
      },
      "geometry": {
        "type": "Point",
        "coordinates": [
          -73.955386,
          40.826815
        ]
      }
    },
    {
      "type": "Feature",
      "properties": {
        "label": "T2 Normal",
        "layer": "T2 Normal",
        "number": 1,
        "route_id": "BX19-S-RushHour",
        "postboxes": 1,
        "revenue": 56.19,
        "address": "SOUTHERN BLVD/EAST FORDHAM RD"
      },
      "geometry": {
        "type": "Point",
        "coordinates": [
          -73.880972,
          40.856252
        ]
      }
    },
    {
      "type": "Feature",
      "properties": {
        "label": "T2 Normal",
        "layer": "T2 Normal",
        "number": 2,
        "route_id": "BX19-S-RushHour",
        "postboxes": 1,
        "revenue": 21.02,
        "address": "SOUTHERN BLVD/E 187 ST"
      },
      "geometry": {
        "type": "Point",
        "coordinates": [
          -73.881852,
          40.853173
        ]
      }
    },
    {
      "type": "Feature",
      "properties": {
        "label": "T2 Normal",
        "layer": "T2 Normal",
        "number": 3,
        "route_id": "BX19-S-RushHour",
        "postboxes": 1,
        "revenue": 14.5,
        "address": "SOUTHERN BLVD/E 183 ST"
      },
      "geometry": {
        "type": "Point",
        "coordinates": [
          -73.882488,
          40.850918
        ]
      }
    },
    {
      "type": "Feature",
      "properties": {
        "label": "T2 Normal",
        "layer": "T2 Normal",
        "number": 4,
        "route_id": "BX19-S-RushHour",
        "postboxes": 1,
        "revenue": 12.43,
        "address": "SOUTHERN BLVD/E 182 ST"
      },
      "geometry": {
        "type": "Point",
        "coordinates": [
          -73.883339,
          40.847976
        ]
      }
    },
    {
      "type": "Feature",
      "properties": {
        "label": "T2 Normal",
        "layer": "T2 Normal",
        "number": 5,
        "route_id": "BX19-S-RushHour",
        "postboxes": 1,
        "revenue": 29.97,
        "address": "SOUTHERN BLVD/E 180 ST"
      },
      "geometry": {
        "type": "Point",
        "coordinates": [
          -73.884499,
          40.846138
        ]
      }
    },
    {
      "type": "Feature",
      "properties": {
        "label": "T2 Normal",
        "layer": "T2 Normal",
        "number": 6,
        "route_id": "BX19-S-RushHour",
        "postboxes": 1,
        "revenue": 27.71,
        "address": "SOUTHERN BLVD/EAST TREMONT AV"
      },
      "geometry": {
        "type": "Point",
        "coordinates": [
          -73.885763,
          40.842926
        ]
      }
    },
    {
      "type": "Feature",
      "properties": {
        "label": "T2 Normal",
        "layer": "T2 Normal",
        "number": 7,
        "route_id": "BX19-S-RushHour",
        "postboxes": 1,
        "revenue": 5.32,
        "address": "SOUTHERN BLVD/E 176 St"
      },
      "geometry": {
        "type": "Point",
        "coordinates": [
          -73.886237,
          40.840198
        ]
      }
    },
    {
      "type": "Feature",
      "properties": {
        "label": "T2 Normal",
        "layer": "T2 Normal",
        "number": 8,
        "route_id": "BX19-S-RushHour",
        "postboxes": 1,
        "revenue": 18.27,
        "address": "SOUTHERN BLVD/E 174 ST"
      },
      "geometry": {
        "type": "Point",
        "coordinates": [
          -73.887719,
          40.837467
        ]
      }
    },
    {
      "type": "Feature",
      "properties": {
        "label": "T2 Normal",
        "layer": "T2 Normal",
        "number": 9,
        "route_id": "BX19-S-RushHour",
        "postboxes": 1,
        "revenue": 9.57,
        "address": "SOUTHERN BLVD/E 172 ST"
      },
      "geometry": {
        "type": "Point",
        "coordinates": [
          -73.889764,
          40.834168
        ]
      }
    },
    {
      "type": "Feature",
      "properties": {
        "label": "T2 Normal",
        "layer": "T2 Normal",
        "number": 10,
        "route_id": "BX19-S-RushHour",
        "postboxes": 1,
        "revenue": 6.96,
        "address": "SOUTHERN BLVD/JENNINGS ST"
      },
      "geometry": {
        "type": "Point",
        "coordinates": [
          -73.890724,
          40.832528
        ]
      }
    },
    {
      "type": "Feature",
      "properties": {
        "label": "T2 Normal",
        "layer": "T2 Normal",
        "number": 11,
        "route_id": "BX19-S-RushHour",
        "postboxes": 1,
        "revenue": 16.82,
        "address": "SOUTHERN BLVD/FREEMAN ST"
      },
      "geometry": {
        "type": "Point",
        "coordinates": [
          -73.891908,
          40.830102
        ]
      }
    },
    {
      "type": "Feature",
      "properties": {
        "label": "T2 Normal",
        "layer": "T2 Normal",
        "number": 12,
        "route_id": "BX19-S-RushHour",
        "postboxes": 1,
        "revenue": 7.73,
        "address": "SOUTHERN BLVD/E 167 ST"
      },
      "geometry": {
        "type": "Point",
        "coordinates": [
          -73.891991,
          40.826905
        ]
      }
    },
    {
      "type": "Feature",
      "properties": {
        "label": "T2 Normal",
        "layer": "T2 Normal",
        "number": 13,
        "route_id": "BX19-S-RushHour",
        "postboxes": 1,
        "revenue": 21.27,
        "address": "SOUTHERN BLVD/WESTCHESTER AV"
      },
      "geometry": {
        "type": "Point",
        "coordinates": [
          -73.891944,
          40.82437
        ]
      }
    },
    {
      "type": "Feature",
      "properties": {
        "label": "T2 Normal",
        "layer": "T2 Normal",
        "number": 14,
        "route_id": "BX19-S-RushHour",
        "postboxes": 1,
        "revenue": 7.25,
        "address": "SOUTHERN BLVD/ALDUS ST"
      },
      "geometry": {
        "type": "Point",
        "coordinates": [
          -73.891817,
          40.822869
        ]
      }
    },
    {
      "type": "Feature",
      "properties": {
        "label": "T2 Normal",
        "layer": "T2 Normal",
        "number": 15,
        "route_id": "BX19-S-RushHour",
        "postboxes": 1,
        "revenue": 45.11,
        "address": "SOUTHERN BLVD/E 163 ST"
      },
      "geometry": {
        "type": "Point",
        "coordinates": [
          -73.891773,
          40.820842
        ]
      }
    },
    {
      "type": "Feature",
      "properties": {
        "label": "T2 Normal",
        "layer": "T2 Normal",
        "number": 16,
        "route_id": "BX19-S-RushHour",
        "postboxes": 1,
        "revenue": 5.44,
        "address": "SOUTHERN BLVD/TIFFANY ST"
      },
      "geometry": {
        "type": "Point",
        "coordinates": [
          -73.894129,
          40.818478
        ]
      }
    },
    {
      "type": "Feature",
      "properties": {
        "label": "T2 Normal",
        "layer": "T2 Normal",
        "number": 17,
        "route_id": "BX19-S-RushHour",
        "postboxes": 1,
        "revenue": 10.73,
        "address": "SOUTHERN BLVD/LONGWOOD AV"
      },
      "geometry": {
        "type": "Point",
        "coordinates": [
          -73.896607,
          40.816076
        ]
      }
    },
    {
      "type": "Feature",
      "properties": {
        "label": "T2 Normal",
        "layer": "T2 Normal",
        "number": 18,
        "route_id": "BX19-S-RushHour",
        "postboxes": 1,
        "revenue": 5.8,
        "address": "SOUTHERN BLVD/E 156 ST"
      },
      "geometry": {
        "type": "Point",
        "coordinates": [
          -73.898025,
          40.81471
        ]
      }
    },
    {
      "type": "Feature",
      "properties": {
        "label": "T2 Normal",
        "layer": "T2 Normal",
        "number": 19,
        "route_id": "BX19-S-RushHour",
        "postboxes": 1,
        "revenue": 11.31,
        "address": "SOUTHERN BLVD/AVENUE SAINT JOHN"
      },
      "geometry": {
        "type": "Point",
        "coordinates": [
          -73.901337,
          40.812995
        ]
      }
    },
    {
      "type": "Feature",
      "properties": {
        "label": "T2 Normal",
        "layer": "T2 Normal",
        "number": 20,
        "route_id": "BX19-S-RushHour",
        "postboxes": 1,
        "revenue": 12.65,
        "address": "SOUTHERN BLVD/E 149 ST"
      },
      "geometry": {
        "type": "Point",
        "coordinates": [
          -73.903953,
          40.812224
        ]
      }
    },
    {
      "type": "Feature",
      "properties": {
        "label": "T2 Normal",
        "layer": "T2 Normal",
        "number": 21,
        "route_id": "BX19-S-RushHour",
        "postboxes": 1,
        "revenue": 26.82,
        "address": "E 149 ST/TINTON AV"
      },
      "geometry": {
        "type": "Point",
        "coordinates": [
          -73.906146,
          40.812659
        ]
      }
    },
    {
      "type": "Feature",
      "properties": {
        "label": "T2 Normal",
        "layer": "T2 Normal",
        "number": 22,
        "route_id": "BX19-S-RushHour",
        "postboxes": 1,
        "revenue": 21.02,
        "address": "E 149 ST/CONCORD AV"
      },
      "geometry": {
        "type": "Point",
        "coordinates": [
          -73.90855,
          40.813155
        ]
      }
    },
    {
      "type": "Feature",
      "properties": {
        "label": "T2 Normal",
        "layer": "T2 Normal",
        "number": 23,
        "route_id": "BX19-S-RushHour",
        "postboxes": 1,
        "revenue": 13.53,
        "address": "E 149 ST/TRINITY AV"
      },
      "geometry": {
        "type": "Point",
        "coordinates": [
          -73.910473,
          40.813559
        ]
      }
    },
    {
      "type": "Feature",
      "properties": {
        "label": "T2 Normal",
        "layer": "T2 Normal",
        "number": 24,
        "route_id": "BX19-S-RushHour",
        "postboxes": 1,
        "revenue": 10.63,
        "address": "E 149 ST/SAINT ANN'S AV"
      },
      "geometry": {
        "type": "Point",
        "coordinates": [
          -73.913289,
          40.814424
        ]
      }
    },
    {
      "type": "Feature",
      "properties": {
        "label": "T2 Normal",
        "layer": "T2 Normal",
        "number": 25,
        "route_id": "BX19-S-RushHour",
        "postboxes": 1,
        "revenue": 11.89,
        "address": "E 149 ST/BROOK AV"
      },
      "geometry": {
        "type": "Point",
        "coordinates": [
          -73.915301,
          40.815166
        ]
      }
    },
    {
      "type": "Feature",
      "properties": {
        "label": "T2 Normal",
        "layer": "T2 Normal",
        "number": 26,
        "route_id": "BX19-S-RushHour",
        "postboxes": 1,
        "revenue": 62.06,
        "address": "E 149 ST/MELROSE AV"
      },
      "geometry": {
        "type": "Point",
        "coordinates": [
          -73.918103,
          40.81628
        ]
      }
    },
    {
      "type": "Feature",
      "properties": {
        "label": "T2 Normal",
        "layer": "T2 Normal",
        "number": 27,
        "route_id": "BX19-S-RushHour",
        "postboxes": 1,
        "revenue": 21.91,
        "address": "E 149 ST/COURTLANDT AV"
      },
      "geometry": {
        "type": "Point",
        "coordinates": [
          -73.919846,
          40.816745
        ]
      }
    },
    {
      "type": "Feature",
      "properties": {
        "label": "T2 Normal",
        "layer": "T2 Normal",
        "number": 28,
        "route_id": "BX19-S-RushHour",
        "postboxes": 1,
        "revenue": 37.17,
        "address": "E 149 ST/MORRIS AV"
      },
      "geometry": {
        "type": "Point",
        "coordinates": [
          -73.923013,
          40.817533
        ]
      }
    },
    {
      "type": "Feature",
      "properties": {
        "label": "T2 Normal",
        "layer": "T2 Normal",
        "number": 29,
        "route_id": "BX19-S-RushHour",
        "postboxes": 1,
        "revenue": 39.73,
        "address": "E 149 ST/GRAND CONCOURSE"
      },
      "geometry": {
        "type": "Point",
        "coordinates": [
          -73.927078,
          40.818589
        ]
      }
    },
    {
      "type": "Feature",
      "properties": {
        "label": "T2 Normal",
        "layer": "T2 Normal",
        "number": 30,
        "route_id": "BX19-S-RushHour",
        "postboxes": 1,
        "revenue": 28.03,
        "address": "E 149 ST/GERARD AV"
      },
      "geometry": {
        "type": "Point",
        "coordinates": [
          -73.929075,
          40.819092
        ]
      }
    },
    {
      "type": "Feature",
      "properties": {
        "label": "T2 Normal",
        "layer": "T2 Normal",
        "number": 31,
        "route_id": "BX19-S-RushHour",
        "postboxes": 1,
        "revenue": 28.71,
        "address": "W 145 ST/MALCOLM X BLVD"
      },
      "geometry": {
        "type": "Point",
        "coordinates": [
          -73.936347,
          40.820557
        ]
      }
    },
    {
      "type": "Feature",
      "properties": {
        "label": "T2 Normal",
        "layer": "T2 Normal",
        "number": 32,
        "route_id": "BX19-S-RushHour",
        "postboxes": 1,
        "revenue": 8.34,
        "address": "W 145 ST/ADAM C POWELL BLVD"
      },
      "geometry": {
        "type": "Point",
        "coordinates": [
          -73.938795,
          40.821618
        ]
      }
    },
    {
      "type": "Feature",
      "properties": {
        "label": "T2 Normal",
        "layer": "T2 Normal",
        "number": 33,
        "route_id": "BX19-S-RushHour",
        "postboxes": 1,
        "revenue": 24.07,
        "address": "W 145 ST/FREDERICK DOUGLASS BLVD"
      },
      "geometry": {
        "type": "Point",
        "coordinates": [
          -73.941703,
          40.822843
        ]
      }
    },
    {
      "type": "Feature",
      "properties": {
        "label": "T2 Normal",
        "layer": "T2 Normal",
        "number": 34,
        "route_id": "BX19-S-RushHour",
        "postboxes": 1,
        "revenue": 14.18,
        "address": "W 145 ST/SAINT NICHOLAS AV"
      },
      "geometry": {
        "type": "Point",
        "coordinates": [
          -73.944516,
          40.82403
        ]
      }
    },
    {
      "type": "Feature",
      "properties": {
        "label": "T2 Outlier",
        "layer": "T2 Outlier",
        "number": 35,
        "route_id": "BX19-S-RushHour",
        "postboxes": 1,
        "revenue": 3.48,
        "address": "W 145 ST/CONVENT AV"
      },
      "geometry": {
        "type": "Point",
        "coordinates": [
          -73.946033,
          40.824665
        ]
      }
    },
    {
      "type": "Feature",
      "properties": {
        "label": "T2 Outlier",
        "layer": "T2 Outlier",
        "number": 36,
        "route_id": "BX19-S-RushHour",
        "postboxes": 1,
        "revenue": 3.22,
        "address": "W 145 ST/AMSTERDAM AV"
      },
      "geometry": {
        "type": "Point",
        "coordinates": [
          -73.947373,
          40.825231
        ]
      }
    },
    {
      "type": "Feature",
      "properties": {
        "label": "T2 Significant",
        "layer": "T2 Significant",
        "number": 0,
        "route_id": "BX19-S-RushHour",
        "postboxes": 1,
        "revenue": 5.08,
        "address": "SOUTHERN BLVD/BOTANICAL GARDENS"
      },
      "geometry": {
        "type": "Point",
        "coordinates": [
          -73.880732,
          40.861247
        ]
      }
    },
    {
      "type": "Feature",
      "properties": {
        "label": "T2 Significant",
        "layer": "T2 Significant",
        "number": 37,
        "route_id": "BX19-S-RushHour",
        "postboxes": 1,
        "revenue": 0.79,
        "address": "W 145 ST/BROADWAY"
      },
      "geometry": {
        "type": "Point",
        "coordinates": [
          -73.950176,
          40.826407
        ]
      }
    },
    {
      "type": "Feature",
      "properties": {
        "label": "T2 Significant",
        "layer": "T2 Significant",
        "number": 38,
        "route_id": "BX19-S-RushHour",
        "postboxes": 1,
        "revenue": 0.0,
        "address": "W 145 ST/RIVERSIDE DR"
      },
      "geometry": {
        "type": "Point",
        "coordinates": [
          -73.951571,
          40.827014
        ]
      }
    },
    {
      "type": "Feature",
      "properties": {
        "label": "T2 Significant",
        "layer": "T2 Significant",
        "number": 39,
        "route_id": "BX19-S-RushHour",
        "postboxes": 1,
        "revenue": 2.17,
        "address": "RIVERBANK STATE PARK RDWY/RIVERBANK STATE PARK"
      },
      "geometry": {
        "type": "Point",
        "coordinates": [
          -73.955386,
          40.826815
        ]
      }
    }
  ]
}