{
  "type": "FeatureCollection",
  "features": [
    {
      "type": "Feature",
      "properties": {
        "label": "T1 Normal",
        "layer": "T1 Normal",
        "number": 0,
        "route_id": "S53-W-Evening",
        "postboxes": 1,
        "revenue": 68.55,
        "address": "4 AV/86 ST"
      },
      "geometry": {
        "type": "Point",
        "coordinates": [
          -74.028688,
          40.622312
        ]
      }
    },
    {
      "type": "Feature",
      "properties": {
        "label": "T1 Normal",
        "layer": "T1 Normal",
        "number": 1,
        "route_id": "S53-W-Evening",
        "postboxes": 1,
        "revenue": 37.7,
        "address": "4 AV/90 ST"
      },
      "geometry": {
        "type": "Point",
        "coordinates": [
          -74.029807,
          40.619537
        ]
      }
    },
    {
      "type": "Feature",
      "properties": {
        "label": "T1 Normal",
        "layer": "T1 Normal",
        "number": 2,
        "route_id": "S53-W-Evening",
        "postboxes": 1,
        "revenue": 9.57,
        "address": "92 ST/FORT HAMILTON PKWY"
      },
      "geometry": {
        "type": "Point",
        "coordinates": [
          -74.027208,
          40.616714
        ]
      }
    },
    {
      "type": "Feature",
      "properties": {
        "label": "T1 Normal",
        "layer": "T1 Normal",
        "number": 12,
        "route_id": "S53-W-Evening",
        "postboxes": 1,
        "revenue": 11.07,
        "address": "HYLAN BLVD/CLOVE RD"
      },
      "geometry": {
        "type": "Point",
        "coordinates": [
          -74.081064,
          40.598662
        ]
      }
    },
    {
      "type": "Feature",
      "properties": {
        "label": "T1 Normal",
        "layer": "T1 Normal",
        "number": 14,
        "route_id": "S53-W-Evening",
        "postboxes": 1,
        "revenue": 5.08,
        "address": "CLOVE RD/GRASMERE STATION"
      },
      "geometry": {
        "type": "Point",
        "coordinates": [
          -74.083453,
          40.603797
        ]
      }
    },
    {
      "type": "Feature",
      "properties": {
        "label": "T1 Normal",
        "layer": "T1 Normal",
        "number": 19,
        "route_id": "S53-W-Evening",
        "postboxes": 1,
        "revenue": 5.8,
        "address": "NARROWS RD NORTH/RICHMOND RD"
      },
      "geometry": {
        "type": "Point",
        "coordinates": [
          -74.090733,
          40.609731
        ]
      }
    },
    {
      "type": "Feature",
      "properties": {
        "label": "T1 Outlier",
        "layer": "T1 Outlier",
        "number": 3,
        "route_id": "S53-W-Evening",
        "postboxes": 1,
        "revenue": 0.0,
        "address": "LILY POND AV/MAJOR AV"
      },
      "geometry": {
        "type": "Point",
        "coordinates": [
          -74.064787,
          40.600265
        ]
      }
    },
    {
      "type": "Feature",
      "properties": {
        "label": "T1 Outlier",
        "layer": "T1 Outlier",
        "number": 4,
        "route_id": "S53-W-Evening",
        "postboxes": 1,
        "revenue": 1.93,
        "address": "McCLEAN AV/LILY POND AV"
      },
      "geometry": {
        "type": "Point",
        "coordinates": [
          -74.06422,
          40.598841
        ]
      }
    },
    {
      "type": "Feature",
      "properties": {
        "label": "T1 Outlier",
        "layer": "T1 Outlier",
        "number": 5,
        "route_id": "S53-W-Evening",
        "postboxes": 1,
        "revenue": 2.58,
        "address": "McCLEAN AV/RAILROAD AV"
      },
      "geometry": {
        "type": "Point",
        "coordinates": [
          -74.06625,
          40.598178
        ]
      }
    },
    {
      "type": "Feature",
      "properties": {
        "label": "T1 Outlier",
        "layer": "T1 Outlier",
        "number": 6,
        "route_id": "S53-W-Evening",
        "postboxes": 1,
        "revenue": 0.48,
        "address": "McCLEAN AV/MILLS AV"
      },
      "geometry": {
        "type": "Point",
        "coordinates": [
          -74.069033,
          40.597254
        ]
      }
    },
    {
      "type": "Feature",
      "properties": {
        "label": "T1 Outlier",
        "layer": "T1 Outlier",
        "number": 7,
        "route_id": "S53-W-Evening",
        "postboxes": 1,
        "revenue": 1.32,
        "address": "SAND LN/McCLEAN AV"
      },
      "geometry": {
        "type": "Point",
        "coordinates": [
          -74.070476,
          40.597025
        ]
      }
    },
    {
      "type": "Feature",
      "properties": {
        "label": "T1 Outlier",
        "layer": "T1 Outlier",
        "number": 8,
        "route_id": "S53-W-Evening",
        "postboxes": 1,
        "revenue": 0.0,
        "address": "SAND LN/HYLAN BLVD"
      },
      "geometry": {
        "type": "Point",
        "coordinates": [
          -74.071822,
          40.598571
        ]
      }
    },
    {
      "type": "Feature",
      "properties": {
        "label": "T1 Outlier",
        "layer": "T1 Outlier",
        "number": 9,
        "route_id": "S53-W-Evening",
        "postboxes": 1,
        "revenue": 1.93,
        "address": "HYLAN BLVD/WEST FINGERBOARD RD"
      },
      "geometry": {
        "type": "Point",
        "coordinates": [
          -74.072639,
          40.598531
        ]
      }
    },
    {
      "type": "Feature",
      "properties": {
        "label": "T1 Outlier",
        "layer": "T1 Outlier",
        "number": 10,
        "route_id": "S53-W-Evening",
        "postboxes": 1,
        "revenue": 0.97,
        "address": "HYLAN BLVD/BIONIA AV"
      },
      "geometry": {
        "type": "Point",
        "coordinates": [
          -74.075832,
          40.598046
        ]
      }
    },
    {
      "type": "Feature",
      "properties": {
        "label": "T1 Outlier",
        "layer": "T1 Outlier",
        "number": 11,
        "route_id": "S53-W-Evening",
        "postboxes": 1,
        "revenue": 0.0,
        "address": "HYLAN BLVD/STEUBEN ST"
      },
      "geometry": {
        "type": "Point",
        "coordinates": [
          -74.078051,
          40.598576
        ]
      }
    },
    {
      "type": "Feature",
      "properties": {
        "label": "T1 Outlier",
        "layer": "T1 Outlier",
        "number": 13,
        "route_id": "S53-W-Evening",
        "postboxes": 1,
        "revenue": 0.0,
        "address": "CLOVE RD/WEST FINGERBOARD RD"
      },
      "geometry": {
        "type": "Point",
        "coordinates": [
          -74.0818,
          40.601717
        ]
      }
    },
    {
      "type": "Feature",
      "properties": {
        "label": "T1 Outlier",
        "layer": "T1 Outlier",
        "number": 15,
        "route_id": "S53-W-Evening",
        "postboxes": 1,
        "revenue": 0.41,
        "address": "CLOVE RD/MOSEL AV"
      },
      "geometry": {
        "type": "Point",
        "coordinates": [
          -74.084668,
          40.60502
        ]
      }
    },
    {
      "type": "Feature",
      "properties": {
        "label": "T1 Outlier",
        "layer": "T1 Outlier",
        "number": 16,
        "route_id": "S53-W-Evening",
        "postboxes": 1,
        "revenue": 0.58,
        "address": "CLOVE RD/NECKAR AV"
      },
      "geometry": {
        "type": "Point",
        "coordinates": [
          -74.086838,
          40.60627
        ]
      }
    },
    {
      "type": "Feature",
      "properties": {
        "label": "T1 Outlier",
        "layer": "T1 Outlier",
        "number": 17,
        "route_id": "S53-W-Evening",
        "postboxes": 1,
        "revenue": 0.97,
        "address": "CLOVE RD/BRITTON AV"
      },
      "geometry": {
        "type": "Point",
        "coordinates": [
          -74.088294,
          40.607114
        ]
      }
    },
    {
      "type": "Feature",
      "properties": {
        "label": "T1 Outlier",
        "layer": "T1 Outlier",
        "number": 18,
        "route_id": "S53-W-Evening",
        "postboxes": 1,
        "revenue": 2.9,
        "address": "CLOVE RD/TARGEE ST"
      },
      "geometry": {
        "type": "Point",
        "coordinates": [
          -74.089219,
          40.6077
        ]
      }
    },
    {
      "type": "Feature",
      "properties": {
        "label": "T1 Outlier",
        "layer": "T1 Outlier",
        "number": 20,
        "route_id": "S53-W-Evening",
        "postboxes": 1,
        "revenue": 1.09,
        "address": "CLOVE RD/HOWARD AV"
      },
      "geometry": {
        "type": "Point",
        "coordinates": [
          -74.099516,
          40.612715
        ]
      }
    },
    {
      "type": "Feature",
      "properties": {
        "label": "T1 Outlier",
        "layer": "T1 Outlier",
        "number": 21,
        "route_id": "S53-W-Evening",
        "postboxes": 1,
        "revenue": 0.72,
        "address": "CLOVE RD/FOOTE AV"
      },
      "geometry": {
        "type": "Point",
        "coordinates": [
          -74.100349,
          40.613422
        ]
      }
    },
    {
      "type": "Feature",
      "properties": {
        "label": "T1 Outlier",
        "layer": "T1 Outlier",
        "number": 22,
        "route_id": "S53-W-Evening",
        "postboxes": 1,
        "revenue": 1.16,
        "address": "CLOVE RD/VAN CORTLANDT AV"
      },
      "geometry": {
        "type": "Point",
        "coordinates": [
          -74.102188,
          40.614859
        ]
      }
    },
    {
      "type": "Feature",
      "properties": {
        "label": "T1 Outlier",
        "layer": "T1 Outlier",
        "number": 23,
        "route_id": "S53-W-Evening",
        "postboxes": 1,
        "revenue": 4.06,
        "address": "CLOVE RD/VICTORY BLVD"
      },
      "geometry": {
        "type": "Point",
        "coordinates": [
          -74.103516,
          40.616595
        ]
      }
    },
    {
      "type": "Feature",
      "properties": {
        "label": "T1 Outlier",
        "layer": "T1 Outlier",
        "number": 24,
        "route_id": "S53-W-Evening",
        "postboxes": 1,
        "revenue": 0.0,
        "address": "CLOVE RD/BEVERLY AV"
      },
      "geometry": {
        "type": "Point",
        "coordinates": [
          -74.104703,
          40.617898
        ]
      }
    },
    {
      "type": "Feature",
      "properties": {
        "label": "T1 Outlier",
        "layer": "T1 Outlier",
        "number": 25,
        "route_id": "S53-W-Evening",
        "postboxes": 1,
        "revenue": 2.9,
        "address": "CLOVE RD/CLOVE LAKE PARK"
      },
      "geometry": {
        "type": "Point",
        "coordinates": [
          -74.10651,
          40.61928
        ]
      }
    },
    {
      "type": "Feature",
      "properties": {
        "label": "T1 Outlier",
        "layer": "T1 Outlier",
        "number": 26,
        "route_id": "S53-W-Evening",
        "postboxes": 1,
        "revenue": 0.97,
        "address": "CLOVE RD/BEMENT AV"
      },
      "geometry": {
        "type": "Point",
        "coordinates": [
          -74.110313,
          40.620945
        ]
      }
    },
    {
      "type": "Feature",
      "properties": {
        "label": "T1 Outlier",
        "layer": "T1 Outlier",
        "number": 31,
        "route_id": "S53-W-Evening",
        "postboxes": 1,
        "revenue": 3.57,
        "address": "BROADWAY/FOREST AV"
      },
      "geometry": {
        "type": "Point",
        "coordinates": [
          -74.116101,
          40.628784
        ]
      }
    },
    {
      "type": "Feature",
      "properties": {
        "label": "T1 Outlier",
        "layer": "T1 Outlier",
        "number": 32,
        "route_id": "S53-W-Evening",
        "postboxes": 1,
        "revenue": 0.0,
        "address": "BROADWAY/DELAFIELD AV"
      },
      "geometry": {
        "type": "Point",
        "coordinates": [
          -74.116432,
          40.630688
        ]
      }
    },
    {
      "type": "Feature",
      "properties": {
        "label": "T1 Outlier",
        "layer": "T1 Outlier",
        "number": 33,
        "route_id": "S53-W-Evening",
        "postboxes": 1,
        "revenue": 0.29,
        "address": "BROADWAY/CARY AV"
      },
      "geometry": {
        "type": "Point",
        "coordinates": [
          -74.116756,
          40.632566
        ]
      }
    },
    {
      "type": "Feature",
      "properties": {
        "label": "T1 Outlier",
        "layer": "T1 Outlier",
        "number": 34,
        "route_id": "S53-W-Evening",
        "postboxes": 1,
        "revenue": 0.87,
        "address": "BROADWAY/CASTLETON AV"
      },
      "geometry": {
        "type": "Point",
        "coordinates": [
          -74.117087,
          40.63439
        ]
      }
    },
    {
      "type": "Feature",
      "properties": {
        "label": "T1 Outlier",
        "layer": "T1 Outlier",
        "number": 35,
        "route_id": "S53-W-Evening",
        "postboxes": 1,
        "revenue": 0.97,
        "address": "CASTLETON AV/CAROLINE ST"
      },
      "geometry": {
        "type": "Point",
        "coordinates": [
          -74.119274,
          40.634487
        ]
      }
    },
    {
      "type": "Feature",
      "properties": {
        "label": "T1 Outlier",
        "layer": "T1 Outlier",
        "number": 36,
        "route_id": "S53-W-Evening",
        "postboxes": 1,
        "revenue": 0.72,
        "address": "CASTLETON AV/BARKER ST"
      },
      "geometry": {
        "type": "Point",
        "coordinates": [
          -74.121612,
          40.634238
        ]
      }
    },
    {
      "type": "Feature",
      "properties": {
        "label": "T1 Outlier",
        "layer": "T1 Outlier",
        "number": 37,
        "route_id": "S53-W-Evening",
        "postboxes": 1,
        "revenue": 1.16,
        "address": "CASTLETON AV/TAYLOR ST"
      },
      "geometry": {
        "type": "Point",
        "coordinates": [
          -74.123446,
          40.634104
        ]
      }
    },
    {
      "type": "Feature",
      "properties": {
        "label": "T1 Significant",
        "layer": "T1 Significant",
        "number": 38,
        "route_id": "S53-W-Evening",
        "postboxes": 1,
        "revenue": 0.32,
        "address": "CASTLETON AV/CLOVE RD"
      },
      "geometry": {
        "type": "Point",
        "coordinates": [
          -74.125845,
          40.633917
        ]
      }
    },
    {
      "type": "Feature",
      "properties": {
        "label": "T1 Significant",
        "layer": "T1 Significant",
        "number": 39,
        "route_id": "S53-W-Evening",
        "postboxes": 1,
        "revenue": 1.61,
        "address": "CASTLETON AV/JEWETT AV"
      },
      "geometry": {
        "type": "Point",
        "coordinates": [
          -74.129761,
          40.63385
        ]
      }
    },
    {
      "type": "Feature",
      "properties": {
        "label": "T1 Significant",
        "layer": "T1 Significant",
        "number": 40,
        "route_id": "S53-W-Evening",
        "postboxes": 1,
        "revenue": 0.0,
        "address": "CASTLETON AV/HEBERTON AV"
      },
      "geometry": {
        "type": "Point",
        "coordinates": [
          -74.132408,
          40.635011
        ]
      }
    },
    {
      "type": "Feature",
      "properties": {
        "label": "T1 Significant",
        "layer": "T1 Significant",
        "number": 41,
        "route_id": "S53-W-Evening",
        "postboxes": 1,
        "revenue": 0.58,
        "address": "PORT RICHMOND AV/HARRISON AV"
      },
      "geometry": {
        "type": "Point",
        "coordinates": [
          -74.134223,
          40.636595
        ]
      }
    },
    {
      "type": "Feature",
      "properties": {
        "label": "T1 Significant",
        "layer": "T1 Significant",
        "number": 42,
        "route_id": "S53-W-Evening",
        "postboxes": 1,
        "revenue": 0.0,
        "address": "PORT RICHMOND AV/BENNETT ST"
      },
      "geometry": {
        "type": "Point",
        "coordinates": [
          -74.132905,
          40.638381
        ]
      }
    },
    {
      "type": "Feature",
      "properties": {
        "label": "T1 Significant",
        "layer": "T1 Significant",
        "number": 43,
        "route_id": "S53-W-Evening",
        "postboxes": 1,
        "revenue": 1.09,
        "address": "PORT RICHMOND AV/RICHMOND TERR"
      },
      "geometry": {
        "type": "Point",
        "coordinates": [
          -74.131826,
          40.639876
        ]
      }
    },
    {
      "type": "Feature",
      "properties": {
        "label": "T1 Significant",
        "layer": "T1 Significant",
        "number": 27,
        "route_id": "S53-W-Evening",
        "postboxes": 1,
        "revenue": 0.0,
        "address": "CLOVE RD/SAINT PETERS CEMETERY"
      },
      "geometry": {
        "type": "Point",
        "coordinates": [
          -74.11239,
          40.622376
        ]
      }
    },
    {
      "type": "Feature",
      "properties": {
        "label": "T1 Significant",
        "layer": "T1 Significant",
        "number": 28,
        "route_id": "S53-W-Evening",
        "postboxes": 1,
        "revenue": 0.0,
        "address": "BROADWAY/COUGHLIN AV"
      },
      "geometry": {
        "type": "Point",
        "coordinates": [
          -74.113791,
          40.624189
        ]
      }
    },
    {
      "type": "Feature",
      "properties": {
        "label": "T1 Significant",
        "layer": "T1 Significant",
        "number": 29,
        "route_id": "S53-W-Evening",
        "postboxes": 1,
        "revenue": 0.0,
        "address": "BROADWAY/COLONIAL CT"
      },
      "geometry": {
        "type": "Point",
        "coordinates": [
          -74.114843,
          40.626178
        ]
      }
    },
    {
      "type": "Feature",
      "properties": {
        "label": "T1 Significant",
        "layer": "T1 Significant",
        "number": 30,
        "route_id": "S53-W-Evening",
        "postboxes": 1,
        "revenue": 0.0,
        "address": "BROADWAY/EAST RALEIGH AV"
      },
      "geometry": {
        "type": "Point",
        "coordinates": [
          -74.115461,
          40.627464
        ]
      }
    },
    {
      "type": "Feature",
      "properties": {
        "label": "T2 Normal",
        "layer": "T2 Normal",
        "number": 0,
        "route_id": "S53-W-Evening",
        "postboxes": 1,
        "revenue": 68.55,
        "address": "4 AV/86 ST"
      },
      "geometry": {
        "type": "Point",
        "coordinates": [
          -74.028688,
          40.622312
        ]
      }
    },
    {
      "type": "Feature",
      "properties": {
        "label": "T2 Normal",
        "layer": "T2 Normal",
        "number": 1,
        "route_id": "S53-W-Evening",
        "postboxes": 1,
        "revenue": 37.7,
        "address": "4 AV/90 ST"
      },
      "geometry": {
        "type": "Point",
        "coordinates": [
          -74.029807,
          40.619537
        ]
      }
    },
    {
      "type": "Feature",
      "properties": {
        "label": "T2 Normal",
        "layer": "T2 Normal",
        "number": 2,
        "route_id": "S53-W-Evening",
        "postboxes": 1,
        "revenue": 9.57,
        "address": "92 ST/FORT HAMILTON PKWY"
      },
      "geometry": {
        "type": "Point",
        "coordinates": [
          -74.027208,
          40.616714
        ]
      }
    },
    {
      "type": "Feature",
      "properties": {
        "label": "T2 Normal",
        "layer": "T2 Normal",
        "number": 12,
        "route_id": "S53-W-Evening",
        "postboxes": 1,
        "revenue": 11.07,
        "address": "HYLAN BLVD/CLOVE RD"
      },
      "geometry": {
        "type": "Point",
        "coordinates": [
          -74.081064,
          40.598662
        ]
      }
    },
    {
      "type": "Feature",
      "properties": {
        "label": "T2 Normal",
        "layer": "T2 Normal",
        "number": 14,
        "route_id": "S53-W-Evening",
        "postboxes": 1,
        "revenue": 5.08,
        "address": "CLOVE RD/GRASMERE STATION"
      },
      "geometry": {
        "type": "Point",
        "coordinates": [
          -74.083453,
          40.603797
        ]
      }
    },
    {
      "type": "Feature",
      "properties": {
        "label": "T2 Normal",
        "layer": "T2 Normal",
        "number": 19,
        "route_id": "S53-W-Evening",
        "postboxes": 1,
        "revenue": 5.8,
        "address": "NARROWS RD NORTH/RICHMOND RD"
      },
      "geometry": {
        "type": "Point",
        "coordinates": [
          -74.090733,
          40.609731
        ]
      }
    },
    {
      "type": "Feature",
      "properties": {
        "label": "T2 Outlier",
        "layer": "T2 Outlier",
        "number": 3,
        "route_id": "S53-W-Evening",
        "postboxes": 1,
        "revenue": 0.0,
        "address": "LILY POND AV/MAJOR AV"
      },
      "geometry": {
        "type": "Point",
        "coordinates": [
          -74.064787,
          40.600265
        ]
      }
    },
    {
      "type": "Feature",
      "properties": {
        "label": "T2 Outlier",
        "layer": "T2 Outlier",
        "number": 4,
        "route_id": "S53-W-Evening",
        "postboxes": 1,
        "revenue": 1.93,
        "address": "McCLEAN AV/LILY POND AV"
      },
      "geometry": {
        "type": "Point",
        "coordinates": [
          -74.06422,
          40.598841
        ]
      }
    },
    {
      "type": "Feature",
      "properties": {
        "label": "T2 Outlier",
        "layer": "T2 Outlier",
        "number": 5,
        "route_id": "S53-W-Evening",
        "postboxes": 1,
        "revenue": 2.58,
        "address": "McCLEAN AV/RAILROAD AV"
      },
      "geometry": {
        "type": "Point",
        "coordinates": [
          -74.06625,
          40.598178
        ]
      }
    },
    {
      "type": "Feature",
      "properties": {
        "label": "T2 Outlier",
        "layer": "T2 Outlier",
        "number": 6,
        "route_id": "S53-W-Evening",
        "postboxes": 1,
        "revenue": 0.48,
        "address": "McCLEAN AV/MILLS AV"
      },
      "geometry": {
        "type": "Point",
        "coordinates": [
          -74.069033,
          40.597254
        ]
      }
    },
    {
      "type": "Feature",
      "properties": {
        "label": "T2 Outlier",
        "layer": "T2 Outlier",
        "number": 7,
        "route_id": "S53-W-Evening",
        "postboxes": 1,
        "revenue": 1.32,
        "address": "SAND LN/McCLEAN AV"
      },
      "geometry": {
        "type": "Point",
        "coordinates": [
          -74.070476,
          40.597025
        ]
      }
    },
    {
      "type": "Feature",
      "properties": {
        "label": "T2 Outlier",
        "layer": "T2 Outlier",
        "number": 8,
        "route_id": "S53-W-Evening",
        "postboxes": 1,
        "revenue": 0.0,
        "address": "SAND LN/HYLAN BLVD"
      },
      "geometry": {
        "type": "Point",
        "coordinates": [
          -74.071822,
          40.598571
        ]
      }
    },
    {
      "type": "Feature",
      "properties": {
        "label": "T2 Outlier",
        "layer": "T2 Outlier",
        "number": 9,
        "route_id": "S53-W-Evening",
        "postboxes": 1,
        "revenue": 1.93,
        "address": "HYLAN BLVD/WEST FINGERBOARD RD"
      },
      "geometry": {
        "type": "Point",
        "coordinates": [
          -74.072639,
          40.598531
        ]
      }
    },
    {
      "type": "Feature",
      "properties": {
        "label": "T2 Outlier",
        "layer": "T2 Outlier",
        "number": 10,
        "route_id": "S53-W-Evening",
        "postboxes": 1,
        "revenue": 0.97,
        "address": "HYLAN BLVD/BIONIA AV"
      },
      "geometry": {
        "type": "Point",
        "coordinates": [
          -74.075832,
          40.598046
        ]
      }
    },
    {
      "type": "Feature",
      "properties": {
        "label": "T2 Outlier",
        "layer": "T2 Outlier",
        "number": 11,
        "route_id": "S53-W-Evening",
        "postboxes": 1,
        "revenue": 0.0,
        "address": "HYLAN BLVD/STEUBEN ST"
      },
      "geometry": {
        "type": "Point",
        "coordinates": [
          -74.078051,
          40.598576
        ]
      }
    },
    {
      "type": "Feature",
      "properties": {
        "label": "T2 Outlier",
        "layer": "T2 Outlier",
        "number": 13,
        "route_id": "S53-W-Evening",
        "postboxes": 1,
        "revenue": 0.0,
        "address": "CLOVE RD/WEST FINGERBOARD RD"
      },
      "geometry": {
        "type": "Point",
        "coordinates": [
          -74.0818,
          40.601717
        ]
      }
    },
    {
      "type": "Feature",
      "properties": {
        "label": "T2 Outlier",
        "layer": "T2 Outlier",
        "number": 15,
        "route_id": "S53-W-Evening",
        "postboxes": 1,
        "revenue": 0.41,
        "address": "CLOVE RD/MOSEL AV"
      },
      "geometry": {
        "type": "Point",
        "coordinates": [
          -74.084668,
          40.60502
        ]
      }
    },
    {
      "type": "Feature",
      "properties": {
        "label": "T2 Outlier",
        "layer": "T2 Outlier",
        "number": 16,
        "route_id": "S53-W-Evening",
        "postboxes": 1,
        "revenue": 0.58,
        "address": "CLOVE RD/NECKAR AV"
      },
      "geometry": {
        "type": "Point",
        "coordinates": [
          -74.086838,
          40.60627
        ]
      }
    },
    {
      "type": "Feature",
      "properties": {
        "label": "T2 Outlier",
        "layer": "T2 Outlier",
        "number": 17,
        "route_id": "S53-W-Evening",
        "postboxes": 1,
        "revenue": 0.97,
        "address": "CLOVE RD/BRITTON AV"
      },
      "geometry": {
        "type": "Point",
        "coordinates": [
          -74.088294,
          40.607114
        ]
      }
    },
    {
      "type": "Feature",
      "properties": {
        "label": "T2 Outlier",
        "layer": "T2 Outlier",
        "number": 18,
        "route_id": "S53-W-Evening",
        "postboxes": 1,
        "revenue": 2.9,
        "address": "CLOVE RD/TARGEE ST"
      },
      "geometry": {
        "type": "Point",
        "coordinates": [
          -74.089219,
          40.6077
        ]
      }
    },
    {
      "type": "Feature",
      "properties": {
        "label": "T2 Outlier",
        "layer": "T2 Outlier",
        "number": 20,
        "route_id": "S53-W-Evening",
        "postboxes": 1,
        "revenue": 1.09,
        "address": "CLOVE RD/HOWARD AV"
      },
      "geometry": {
        "type": "Point",
        "coordinates": [
          -74.099516,
          40.612715
        ]
      }
    },
    {
      "type": "Feature",
      "properties": {
        "label": "T2 Outlier",
        "layer": "T2 Outlier",
        "number": 21,
        "route_id": "S53-W-Evening",
        "postboxes": 1,
        "revenue": 0.72,
        "address": "CLOVE RD/FOOTE AV"
      },
      "geometry": {
        "type": "Point",
        "coordinates": [
          -74.100349,
          40.613422
        ]
      }
    },
    {
      "type": "Feature",
      "properties": {
        "label": "T2 Outlier",
        "layer": "T2 Outlier",
        "number": 22,
        "route_id": "S53-W-Evening",
        "postboxes": 1,
        "revenue": 1.16,
        "address": "CLOVE RD/VAN CORTLANDT AV"
      },
      "geometry": {
        "type": "Point",
        "coordinates": [
          -74.102188,
          40.614859
        ]
      }
    },
    {
      "type": "Feature",
      "properties": {
        "label": "T2 Outlier",
        "layer": "T2 Outlier",
        "number": 23,
        "route_id": "S53-W-Evening",
        "postboxes": 1,
        "revenue": 4.06,
        "address": "CLOVE RD/VICTORY BLVD"
      },
      "geometry": {
        "type": "Point",
        "coordinates": [
          -74.103516,
          40.616595
        ]
      }
    },
    {
      "type": "Feature",
      "properties": {
        "label": "T2 Outlier",
        "layer": "T2 Outlier",
        "number": 24,
        "route_id": "S53-W-Evening",
        "postboxes": 1,
        "revenue": 0.0,
        "address": "CLOVE RD/BEVERLY AV"
      },
      "geometry": {
        "type": "Point",
        "coordinates": [
          -74.104703,
          40.617898
        ]
      }
    },
    {
      "type": "Feature",
      "properties": {
        "label": "T2 Outlier",
        "layer": "T2 Outlier",
        "number": 25,
        "route_id": "S53-W-Evening",
        "postboxes": 1,
        "revenue": 2.9,
        "address": "CLOVE RD/CLOVE LAKE PARK"
      },
      "geometry": {
        "type": "Point",
        "coordinates": [
          -74.10651,
          40.61928
        ]
      }
    },
    {
      "type": "Feature",
      "properties": {
        "label": "T2 Outlier",
        "layer": "T2 Outlier",
        "number": 26,
        "route_id": "S53-W-Evening",
        "postboxes": 1,
        "revenue": 0.97,
        "address": "CLOVE RD/BEMENT AV"
      },
      "geometry": {
        "type": "Point",
        "coordinates": [
          -74.110313,
          40.620945
        ]
      }
    },
    {
      "type": "Feature",
      "properties": {
        "label": "T2 Outlier",
        "layer": "T2 Outlier",
        "number": 27,
        "route_id": "S53-W-Evening",
        "postboxes": 1,
        "revenue": 0.0,
        "address": "CLOVE RD/SAINT PETERS CEMETERY"
      },
      "geometry": {
        "type": "Point",
        "coordinates": [
          -74.11239,
          40.622376
        ]
      }
    },
    {
      "type": "Feature",
      "properties": {
        "label": "T2 Outlier",
        "layer": "T2 Outlier",
        "number": 28,
        "route_id": "S53-W-Evening",
        "postboxes": 1,
        "revenue": 0.0,
        "address": "BROADWAY/COUGHLIN AV"
      },
      "geometry": {
        "type": "Point",
        "coordinates": [
          -74.113791,
          40.624189
        ]
      }
    },
    {
      "type": "Feature",
      "properties": {
        "label": "T2 Outlier",
        "layer": "T2 Outlier",
        "number": 29,
        "route_id": "S53-W-Evening",
        "postboxes": 1,
        "revenue": 0.0,
        "address": "BROADWAY/COLONIAL CT"
      },
      "geometry": {
        "type": "Point",
        "coordinates": [
          -74.114843,
          40.626178
        ]
      }
    },
    {
      "type": "Feature",
      "properties": {
        "label": "T2 Outlier",
        "layer": "T2 Outlier",
        "number": 30,
        "route_id": "S53-W-Evening",
        "postboxes": 1,
        "revenue": 0.0,
        "address": "BROADWAY/EAST RALEIGH AV"
      },
      "geometry": {
        "type": "Point",
        "coordinates": [
          -74.115461,
          40.627464
        ]
      }
    },
    {
      "type": "Feature",
      "properties": {
        "label": "T2 Outlier",
        "layer": "T2 Outlier",
        "number": 31,
        "route_id": "S53-W-Evening",
        "postboxes": 1,
        "revenue": 3.57,
        "address": "BROADWAY/FOREST AV"
      },
      "geometry": {
        "type": "Point",
        "coordinates": [
          -74.116101,
          40.628784
        ]
      }
    },
    {
      "type": "Feature",
      "properties": {
        "label": "T2 Outlier",
        "layer": "T2 Outlier",
        "number": 32,
        "route_id": "S53-W-Evening",
        "postboxes": 1,
        "revenue": 0.0,
        "address": "BROADWAY/DELAFIELD AV"
      },
      "geometry": {
        "type": "Point",
        "coordinates": [
          -74.116432,
          40.630688
        ]
      }
    },
    {
      "type": "Feature",
      "properties": {
        "label": "T2 Outlier",
        "layer": "T2 Outlier",
        "number": 33,
        "route_id": "S53-W-Evening",
        "postboxes": 1,
        "revenue": 0.29,
        "address": "BROADWAY/CARY AV"
      },
      "geometry": {
        "type": "Point",
        "coordinates": [
          -74.116756,
          40.632566
        ]
      }
    },
    {
      "type": "Feature",
      "properties": {
        "label": "T2 Outlier",
        "layer": "T2 Outlier",
        "number": 34,
        "route_id": "S53-W-Evening",
        "postboxes": 1,
        "revenue": 0.87,
        "address": "BROADWAY/CASTLETON AV"
      },
      "geometry": {
        "type": "Point",
        "coordinates": [
          -74.117087,
          40.63439
        ]
      }
    },
    {
      "type": "Feature",
      "properties": {
        "label": "T2 Outlier",
        "layer": "T2 Outlier",
        "number": 35,
        "route_id": "S53-W-Evening",
        "postboxes": 1,
        "revenue": 0.97,
        "address": "CASTLETON AV/CAROLINE ST"
      },
      "geometry": {
        "type": "Point",
        "coordinates": [
          -74.119274,
          40.634487
        ]
      }
    },
    {
      "type": "Feature",
      "properties": {
        "label": "T2 Significant",
        "layer": "T2 Significant",
        "number": 36,
        "route_id": "S53-W-Evening",
        "postboxes": 1,
        "revenue": 0.72,
        "address": "CASTLETON AV/BARKER ST"
      },
      "geometry": {
        "type": "Point",
        "coordinates": [
          -74.121612,
          40.634238
        ]
      }
    },
    {
      "type": "Feature",
      "properties": {
        "label": "T2 Significant",
        "layer": "T2 Significant",
        "number": 37,
        "route_id": "S53-W-Evening",
        "postboxes": 1,
        "revenue": 1.16,
        "address": "CASTLETON AV/TAYLOR ST"
      },
      "geometry": {
        "type": "Point",
        "coordinates": [
          -74.123446,
          40.634104
        ]
      }
    },
    {
      "type": "Feature",
      "properties": {
        "label": "T2 Significant",
        "layer": "T2 Significant",
        "number": 38,
        "route_id": "S53-W-Evening",
        "postboxes": 1,
        "revenue": 0.32,
        "address": "CASTLETON AV/CLOVE RD"
      },
      "geometry": {
        "type": "Point",
        "coordinates": [
          -74.125845,
          40.633917
        ]
      }
    },
    {
      "type": "Feature",
      "properties": {
        "label": "T2 Significant",
        "layer": "T2 Significant",
        "number": 39,
        "route_id": "S53-W-Evening",
        "postboxes": 1,
        "revenue": 1.61,
        "address": "CASTLETON AV/JEWETT AV"
      },
      "geometry": {
        "type": "Point",
        "coordinates": [
          -74.129761,
          40.63385
        ]
      }
    },
    {
      "type": "Feature",
      "properties": {
        "label": "T2 Significant",
        "layer": "T2 Significant",
        "number": 40,
        "route_id": "S53-W-Evening",
        "postboxes": 1,
        "revenue": 0.0,
        "address": "CASTLETON AV/HEBERTON AV"
      },
      "geometry": {
        "type": "Point",
        "coordinates": [
          -74.132408,
          40.635011
        ]
      }
    },
    {
      "type": "Feature",
      "properties": {
        "label": "T2 Significant",
        "layer": "T2 Significant",
        "number": 41,
        "route_id": "S53-W-Evening",
        "postboxes": 1,
        "revenue": 0.58,
        "address": "PORT RICHMOND AV/HARRISON AV"
      },
      "geometry": {
        "type": "Point",
        "coordinates": [
          -74.134223,
          40.636595
        ]
      }
    },
    {
      "type": "Feature",
      "properties": {
        "label": "T2 Significant",
        "layer": "T2 Significant",
        "number": 42,
        "route_id": "S53-W-Evening",
        "postboxes": 1,
        "revenue": 0.0,
        "address": "PORT RICHMOND AV/BENNETT ST"
      },
      "geometry": {
        "type": "Point",
        "coordinates": [
          -74.132905,
          40.638381
        ]
      }
    },
    {
      "type": "Feature",
      "properties": {
        "label": "T2 Significant",
        "layer": "T2 Significant",
        "number": 43,
        "route_id": "S53-W-Evening",
        "postboxes": 1,
        "revenue": 1.09,
        "address": "PORT RICHMOND AV/RICHMOND TERR"
      },
      "geometry": {
        "type": "Point",
        "coordinates": [
          -74.131826,
          40.639876
        ]
      }
    }
  ]
}