{
  "type": "FeatureCollection",
  "features": [
    {
      "type": "Feature",
      "properties": {
        "label": "T1 Normal",
        "layer": "T1 Normal",
        "number": 1,
        "route_id": "M15-S-RushHour",
        "postboxes": 1,
        "revenue": 11.6,
        "address": "2 AV/E 125 ST"
      },
      "geometry": {
        "type": "Point",
        "coordinates": [
          -73.933855,
          40.802473
        ]
      }
    },
    {
      "type": "Feature",
      "properties": {
        "label": "T1 Normal",
        "layer": "T1 Normal",
        "number": 2,
        "route_id": "M15-S-RushHour",
        "postboxes": 1,
        "revenue": 8.7,
        "address": "2 AV/E 122 ST"
      },
      "geometry": {
        "type": "Point",
        "coordinates": [
          -73.935233,
          40.800564
        ]
      }
    },
    {
      "type": "Feature",
      "properties": {
        "label": "T1 Normal",
        "layer": "T1 Normal",
        "number": 3,
        "route_id": "M15-S-RushHour",
        "postboxes": 1,
        "revenue": 2.9,
        "address": "2 AV/E 119 ST"
      },
      "geometry": {
        "type": "Point",
        "coordinates": [
          -73.93661,
          40.798669
        ]
      }
    },
    {
      "type": "Feature",
      "properties": {
        "label": "T1 Normal",
        "layer": "T1 Normal",
        "number": 4,
        "route_id": "M15-S-RushHour",
        "postboxes": 1,
        "revenue": 14.5,
        "address": "2 AV/E 116 ST"
      },
      "geometry": {
        "type": "Point",
        "coordinates": [
          -73.93804,
          40.796723
        ]
      }
    },
    {
      "type": "Feature",
      "properties": {
        "label": "T1 Normal",
        "layer": "T1 Normal",
        "number": 6,
        "route_id": "M15-S-RushHour",
        "postboxes": 1,
        "revenue": 10.63,
        "address": "2 AV/E 108 ST"
      },
      "geometry": {
        "type": "Point",
        "coordinates": [
          -73.941736,
          40.791673
        ]
      }
    },
    {
      "type": "Feature",
      "properties": {
        "label": "T1 Normal",
        "layer": "T1 Normal",
        "number": 7,
        "route_id": "M15-S-RushHour",
        "postboxes": 1,
        "revenue": 11.6,
        "address": "2 AV/E 103 ST"
      },
      "geometry": {
        "type": "Point",
        "coordinates": [
          -73.944015,
          40.788563
        ]
      }
    },
    {
      "type": "Feature",
      "properties": {
        "label": "T1 Normal",
        "layer": "T1 Normal",
        "number": 8,
        "route_id": "M15-S-RushHour",
        "postboxes": 1,
        "revenue": 2.9,
        "address": "2 AV/E 101 ST"
      },
      "geometry": {
        "type": "Point",
        "coordinates": [
          -73.944893,
          40.787352
        ]
      }
    },
    {
      "type": "Feature",
      "properties": {
        "label": "T1 Normal",
        "layer": "T1 Normal",
        "number": 10,
        "route_id": "M15-S-RushHour",
        "postboxes": 1,
        "revenue": 18.37,
        "address": "2 AV/E 96 ST"
      },
      "geometry": {
        "type": "Point",
        "coordinates": [
          -73.947265,
          40.784201
        ]
      }
    },
    {
      "type": "Feature",
      "properties": {
        "label": "T1 Normal",
        "layer": "T1 Normal",
        "number": 11,
        "route_id": "M15-S-RushHour",
        "postboxes": 1,
        "revenue": 6.77,
        "address": "2 AV/E 94 ST"
      },
      "geometry": {
        "type": "Point",
        "coordinates": [
          -73.948302,
          40.782675
        ]
      }
    },
    {
      "type": "Feature",
      "properties": {
        "label": "T1 Normal",
        "layer": "T1 Normal",
        "number": 12,
        "route_id": "M15-S-RushHour",
        "postboxes": 1,
        "revenue": 3.87,
        "address": "2 AV/E 92 ST"
      },
      "geometry": {
        "type": "Point",
        "coordinates": [
          -73.949159,
          40.78151
        ]
      }
    },
    {
      "type": "Feature",
      "properties": {
        "label": "T1 Normal",
        "layer": "T1 Normal",
        "number": 13,
        "route_id": "M15-S-RushHour",
        "postboxes": 1,
        "revenue": 2.9,
        "address": "2 AV/E 89 ST"
      },
      "geometry": {
        "type": "Point",
        "coordinates": [
          -73.950523,
          40.779657
        ]
      }
    },
    {
      "type": "Feature",
      "properties": {
        "label": "T1 Normal",
        "layer": "T1 Normal",
        "number": 14,
        "route_id": "M15-S-RushHour",
        "postboxes": 1,
        "revenue": 7.73,
        "address": "2 AV/E 87 ST"
      },
      "geometry": {
        "type": "Point",
        "coordinates": [
          -73.95143,
          40.77851
        ]
      }
    },
    {
      "type": "Feature",
      "properties": {
        "label": "T1 Normal",
        "layer": "T1 Normal",
        "number": 15,
        "route_id": "M15-S-RushHour",
        "postboxes": 1,
        "revenue": 3.87,
        "address": "2 AV/E 84 ST"
      },
      "geometry": {
        "type": "Point",
        "coordinates": [
          -73.952953,
          40.776302
        ]
      }
    },
    {
      "type": "Feature",
      "properties": {
        "label": "T1 Normal",
        "layer": "T1 Normal",
        "number": 16,
        "route_id": "M15-S-RushHour",
        "postboxes": 1,
        "revenue": 2.9,
        "address": "2 AV/E 82 ST"
      },
      "geometry": {
        "type": "Point",
        "coordinates": [
          -73.95387,
          40.775053
        ]
      }
    },
    {
      "type": "Feature",
      "properties": {
        "label": "T1 Normal",
        "layer": "T1 Normal",
        "number": 17,
        "route_id": "M15-S-RushHour",
        "postboxes": 1,
        "revenue": 2.9,
        "address": "2 AV/E 78 ST"
      },
      "geometry": {
        "type": "Point",
        "coordinates": [
          -73.955434,
          40.772922
        ]
      }
    },
    {
      "type": "Feature",
      "properties": {
        "label": "T1 Normal",
        "layer": "T1 Normal",
        "number": 18,
        "route_id": "M15-S-RushHour",
        "postboxes": 1,
        "revenue": 8.7,
        "address": "2 AV/E 75 ST"
      },
      "geometry": {
        "type": "Point",
        "coordinates": [
          -73.95695,
          40.770821
        ]
      }
    },
    {
      "type": "Feature",
      "properties": {
        "label": "T1 Normal",
        "layer": "T1 Normal",
        "number": 20,
        "route_id": "M15-S-RushHour",
        "postboxes": 1,
        "revenue": 23.2,
        "address": "2 AV/E 70 ST"
      },
      "geometry": {
        "type": "Point",
        "coordinates": [
          -73.959501,
          40.76733
        ]
      }
    },
    {
      "type": "Feature",
      "properties": {
        "label": "T1 Normal",
        "layer": "T1 Normal",
        "number": 21,
        "route_id": "M15-S-RushHour",
        "postboxes": 1,
        "revenue": 14.5,
        "address": "2 AV/E 68 ST"
      },
      "geometry": {
        "type": "Point",
        "coordinates": [
          -73.960476,
          40.76599
        ]
      }
    },
    {
      "type": "Feature",
      "properties": {
        "label": "T1 Normal",
        "layer": "T1 Normal",
        "number": 23,
        "route_id": "M15-S-RushHour",
        "postboxes": 1,
        "revenue": 8.7,
        "address": "2 AV/E 64 ST"
      },
      "geometry": {
        "type": "Point",
        "coordinates": [
          -73.962314,
          40.763471
        ]
      }
    },
    {
      "type": "Feature",
      "properties": {
        "label": "T1 Normal",
        "layer": "T1 Normal",
        "number": 24,
        "route_id": "M15-S-RushHour",
        "postboxes": 1,
        "revenue": 10.63,
        "address": "2 AV/E 61 ST"
      },
      "geometry": {
        "type": "Point",
        "coordinates": [
          -73.963644,
          40.761701
        ]
      }
    },
    {
      "type": "Feature",
      "properties": {
        "label": "T1 Normal",
        "layer": "T1 Normal",
        "number": 25,
        "route_id": "M15-S-RushHour",
        "postboxes": 1,
        "revenue": 10.63,
        "address": "2 AV/E 57 ST"
      },
      "geometry": {
        "type": "Point",
        "coordinates": [
          -73.965601,
          40.758987
        ]
      }
    },
    {
      "type": "Feature",
      "properties": {
        "label": "T1 Normal",
        "layer": "T1 Normal",
        "number": 26,
        "route_id": "M15-S-RushHour",
        "postboxes": 1,
        "revenue": 5.8,
        "address": "2 AV/E 54 ST"
      },
      "geometry": {
        "type": "Point",
        "coordinates": [
          -73.966937,
          40.757149
        ]
      }
    },
    {
      "type": "Feature",
      "properties": {
        "label": "T1 Normal",
        "layer": "T1 Normal",
        "number": 27,
        "route_id": "M15-S-RushHour",
        "postboxes": 1,
        "revenue": 13.53,
        "address": "2 AV/E 50 ST"
      },
      "geometry": {
        "type": "Point",
        "coordinates": [
          -73.968787,
          40.754623
        ]
      }
    },
    {
      "type": "Feature",
      "properties": {
        "label": "T1 Normal",
        "layer": "T1 Normal",
        "number": 28,
        "route_id": "M15-S-RushHour",
        "postboxes": 1,
        "revenue": 3.87,
        "address": "2 AV/E 46 ST"
      },
      "geometry": {
        "type": "Point",
        "coordinates": [
          -73.970371,
          40.752481
        ]
      }
    },
    {
      "type": "Feature",
      "properties": {
        "label": "T1 Normal",
        "layer": "T1 Normal",
        "number": 29,
        "route_id": "M15-S-RushHour",
        "postboxes": 1,
        "revenue": 14.5,
        "address": "2 AV/E 42 ST"
      },
      "geometry": {
        "type": "Point",
        "coordinates": [
          -73.972517,
          40.749502
        ]
      }
    },
    {
      "type": "Feature",
      "properties": {
        "label": "T1 Normal",
        "layer": "T1 Normal",
        "number": 30,
        "route_id": "M15-S-RushHour",
        "postboxes": 1,
        "revenue": 3.87,
        "address": "2 AV/E 39 ST"
      },
      "geometry": {
        "type": "Point",
        "coordinates": [
          -73.97388,
          40.747638
        ]
      }
    },
    {
      "type": "Feature",
      "properties": {
        "label": "T1 Normal",
        "layer": "T1 Normal",
        "number": 31,
        "route_id": "M15-S-RushHour",
        "postboxes": 1,
        "revenue": 13.53,
        "address": "2 AV/E 36 ST"
      },
      "geometry": {
        "type": "Point",
        "coordinates": [
          -73.974949,
          40.746181
        ]
      }
    },
    {
      "type": "Feature",
      "properties": {
        "label": "T1 Normal",
        "layer": "T1 Normal",
        "number": 32,
        "route_id": "M15-S-RushHour",
        "postboxes": 1,
        "revenue": 7.25,
        "address": "2 AV/E 33 ST"
      },
      "geometry": {
        "type": "Point",
        "coordinates": [
          -73.976632,
          40.743851
        ]
      }
    },
    {
      "type": "Feature",
      "properties": {
        "label": "T1 Normal",
        "layer": "T1 Normal",
        "number": 33,
        "route_id": "M15-S-RushHour",
        "postboxes": 1,
        "revenue": 5.8,
        "address": "2 AV/E 31 ST"
      },
      "geometry": {
        "type": "Point",
        "coordinates": [
          -73.977523,
          40.742638
        ]
      }
    },
    {
      "type": "Feature",
      "properties": {
        "label": "T1 Normal",
        "layer": "T1 Normal",
        "number": 34,
        "route_id": "M15-S-RushHour",
        "postboxes": 1,
        "revenue": 15.95,
        "address": "2 AV/E 28 ST"
      },
      "geometry": {
        "type": "Point",
        "coordinates": [
          -73.978641,
          40.741114
        ]
      }
    },
    {
      "type": "Feature",
      "properties": {
        "label": "T1 Normal",
        "layer": "T1 Normal",
        "number": 35,
        "route_id": "M15-S-RushHour",
        "postboxes": 1,
        "revenue": 3.62,
        "address": "2 AV/E 25 ST"
      },
      "geometry": {
        "type": "Point",
        "coordinates": [
          -73.980226,
          40.738933
        ]
      }
    },
    {
      "type": "Feature",
      "properties": {
        "label": "T1 Normal",
        "layer": "T1 Normal",
        "number": 36,
        "route_id": "M15-S-RushHour",
        "postboxes": 1,
        "revenue": 13.78,
        "address": "2 AV/E 23 ST"
      },
      "geometry": {
        "type": "Point",
        "coordinates": [
          -73.981202,
          40.737516
        ]
      }
    },
    {
      "type": "Feature",
      "properties": {
        "label": "T1 Normal",
        "layer": "T1 Normal",
        "number": 37,
        "route_id": "M15-S-RushHour",
        "postboxes": 1,
        "revenue": 1.93,
        "address": "2 AV/E 20 ST"
      },
      "geometry": {
        "type": "Point",
        "coordinates": [
          -73.982489,
          40.735746
        ]
      }
    },
    {
      "type": "Feature",
      "properties": {
        "label": "T1 Normal",
        "layer": "T1 Normal",
        "number": 38,
        "route_id": "M15-S-RushHour",
        "postboxes": 1,
        "revenue": 5.8,
        "address": "2 AV/E 17 ST"
      },
      "geometry": {
        "type": "Point",
        "coordinates": [
          -73.983769,
          40.733996
        ]
      }
    },
    {
      "type": "Feature",
      "properties": {
        "label": "T1 Normal",
        "layer": "T1 Normal",
        "number": 39,
        "route_id": "M15-S-RushHour",
        "postboxes": 1,
        "revenue": 10.63,
        "address": "2 AV/E 14 ST"
      },
      "geometry": {
        "type": "Point",
        "coordinates": [
          -73.984903,
          40.732494
        ]
      }
    },
    {
      "type": "Feature",
      "properties": {
        "label": "T1 Normal",
        "layer": "T1 Normal",
        "number": 40,
        "route_id": "M15-S-RushHour",
        "postboxes": 1,
        "revenue": 1.93,
        "address": "2 AV/E 12 ST"
      },
      "geometry": {
        "type": "Point",
        "coordinates": [
          -73.986156,
          40.730796
        ]
      }
    },
    {
      "type": "Feature",
      "properties": {
        "label": "T1 Normal",
        "layer": "T1 Normal",
        "number": 41,
        "route_id": "M15-S-RushHour",
        "postboxes": 1,
        "revenue": 7.25,
        "address": "2 AV/E 9 ST"
      },
      "geometry": {
        "type": "Point",
        "coordinates": [
          -73.987523,
          40.728891
        ]
      }
    },
    {
      "type": "Feature",
      "properties": {
        "label": "T1 Normal",
        "layer": "T1 Normal",
        "number": 45,
        "route_id": "M15-S-RushHour",
        "postboxes": 1,
        "revenue": 4.83,
        "address": "ALLEN ST/EAST HOUSTON ST"
      },
      "geometry": {
        "type": "Point",
        "coordinates": [
          -73.98899,
          40.722516
        ]
      }
    },
    {
      "type": "Feature",
      "properties": {
        "label": "T1 Normal",
        "layer": "T1 Normal",
        "number": 46,
        "route_id": "M15-S-RushHour",
        "postboxes": 1,
        "revenue": 7.25,
        "address": "ALLEN ST/DELANCEY ST"
      },
      "geometry": {
        "type": "Point",
        "coordinates": [
          -73.990466,
          40.719411
        ]
      }
    },
    {
      "type": "Feature",
      "properties": {
        "label": "T1 Normal",
        "layer": "T1 Normal",
        "number": 47,
        "route_id": "M15-S-RushHour",
        "postboxes": 1,
        "revenue": 11.6,
        "address": "ALLEN ST/HESTER ST"
      },
      "geometry": {
        "type": "Point",
        "coordinates": [
          -73.992021,
          40.716371
        ]
      }
    },
    {
      "type": "Feature",
      "properties": {
        "label": "T1 Normal",
        "layer": "T1 Normal",
        "number": 48,
        "route_id": "M15-S-RushHour",
        "postboxes": 1,
        "revenue": 2.9,
        "address": "ALLEN ST/CANAL ST"
      },
      "geometry": {
        "type": "Point",
        "coordinates": [
          -73.992805,
          40.714855
        ]
      }
    },
    {
      "type": "Feature",
      "properties": {
        "label": "T1 Normal",
        "layer": "T1 Normal",
        "number": 49,
        "route_id": "M15-S-RushHour",
        "postboxes": 1,
        "revenue": 2.9,
        "address": "PIKE ST/MADISON ST"
      },
      "geometry": {
        "type": "Point",
        "coordinates": [
          -73.992622,
          40.712625
        ]
      }
    },
    {
      "type": "Feature",
      "properties": {
        "label": "T1 Outlier",
        "layer": "T1 Outlier",
        "number": 0,
        "route_id": "M15-S-RushHour",
        "postboxes": 1,
        "revenue": 2.9,
        "address": "E 126 ST/2 AV"
      },
      "geometry": {
        "type": "Point",
        "coordinates": [
          -73.932451,
          40.80323
        ]
      }
    },
    {
      "type": "Feature",
      "properties": {
        "label": "T1 Outlier",
        "layer": "T1 Outlier",
        "number": 5,
        "route_id": "M15-S-RushHour",
        "postboxes": 1,
        "revenue": 0.0,
        "address": "2 AV/E 111 ST"
      },
      "geometry": {
        "type": "Point",
        "coordinates": [
          -73.940328,
          40.793625
        ]
      }
    },
    {
      "type": "Feature",
      "properties": {
        "label": "T1 Outlier",
        "layer": "T1 Outlier",
        "number": 9,
        "route_id": "M15-S-RushHour",
        "postboxes": 1,
        "revenue": 0.0,
        "address": "2 AV/E 97 ST"
      },
      "geometry": {
        "type": "Point",
        "coordinates": [
          -73.946555,
          40.785065
        ]
      }
    },
    {
      "type": "Feature",
      "properties": {
        "label": "T1 Outlier",
        "layer": "T1 Outlier",
        "number": 19,
        "route_id": "M15-S-RushHour",
        "postboxes": 1,
        "revenue": 0.0,
        "address": "2 AV/E 72 ST"
      },
      "geometry": {
        "type": "Point",
        "coordinates": [
          -73.958485,
          40.768727
        ]
      }
    },
    {
      "type": "Feature",
      "properties": {
        "label": "T1 Outlier",
        "layer": "T1 Outlier",
        "number": 22,
        "route_id": "M15-S-RushHour",
        "postboxes": 1,
        "revenue": 0.97,
        "address": "2 AV/E 66 ST"
      },
      "geometry": {
        "type": "Point",
        "coordinates": [
          -73.961439,
          40.764664
        ]
      }
    },
    {
      "type": "Feature",
      "properties": {
        "label": "T1 Outlier",
        "layer": "T1 Outlier",
        "number": 42,
        "route_id": "M15-S-RushHour",
        "postboxes": 1,
        "revenue": 1.93,
        "address": "2 AV/E 6 ST"
      },
      "geometry": {
        "type": "Point",
        "coordinates": [
          -73.988785,
          40.727161
        ]
      }
    },
    {
      "type": "Feature",
      "properties": {
        "label": "T1 Outlier",
        "layer": "T1 Outlier",
        "number": 50,
        "route_id": "M15-S-RushHour",
        "postboxes": 1,
        "revenue": 5.8,
        "address": "MADISON ST/MARKET ST"
      },
      "geometry": {
        "type": "Point",
        "coordinates": [
          -73.994744,
          40.712325
        ]
      }
    },
    {
      "type": "Feature",
      "properties": {
        "label": "T1 Significant",
        "layer": "T1 Significant",
        "number": 43,
        "route_id": "M15-S-RushHour",
        "postboxes": 1,
        "revenue": 0.0,
        "address": "2 AV/E 3 ST"
      },
      "geometry": {
        "type": "Point",
        "coordinates": [
          -73.990108,
          40.725343
        ]
      }
    },
    {
      "type": "Feature",
      "properties": {
        "label": "T1 Significant",
        "layer": "T1 Significant",
        "number": 44,
        "route_id": "M15-S-RushHour",
        "postboxes": 1,
        "revenue": 0.0,
        "address": "EAST HOUSTON ST/FORSYTH ST"
      },
      "geometry": {
        "type": "Point",
        "coordinates": [
          -73.990427,
          40.723329
        ]
      }
    },
    {
      "type": "Feature",
      "properties": {
        "label": "T1 Significant",
        "layer": "T1 Significant",
        "number": 51,
        "route_id": "M15-S-RushHour",
        "postboxes": 1,
        "revenue": 0.0,
        "address": "MADISON ST/CATHERINE ST"
      },
      "geometry": {
        "type": "Point",
        "coordinates": [
          -73.997462,
          40.712064
        ]
      }
    },
    {
      "type": "Feature",
      "properties": {
        "label": "T1 Significant",
        "layer": "T1 Significant",
        "number": 52,
        "route_id": "M15-S-RushHour",
        "postboxes": 1,
        "revenue": 2.9,
        "address": "MADISON ST/SAINT JAMES PL"
      },
      "geometry": {
        "type": "Point",
        "coordinates": [
          -73.99943,
          40.711883
        ]
      }
    },
    {
      "type": "Feature",
      "properties": {
        "label": "T1 Significant",
        "layer": "T1 Significant",
        "number": 53,
        "route_id": "M15-S-RushHour",
        "postboxes": 1,
        "revenue": 0.0,
        "address": "PEARL ST / PEARL ST"
      },
      "geometry": {
        "type": "Point",
        "coordinates": [
          -74.000822,
          40.710832
        ]
      }
    },
    {
      "type": "Feature",
      "properties": {
        "label": "T1 Significant",
        "layer": "T1 Significant",
        "number": 54,
        "route_id": "M15-S-RushHour",
        "postboxes": 1,
        "revenue": 0.0,
        "address": "PEARL ST/FULTON ST"
      },
      "geometry": {
        "type": "Point",
        "coordinates": [
          -74.004,
          40.707631
        ]
      }
    },
    {
      "type": "Feature",
      "properties": {
        "label": "T1 Significant",
        "layer": "T1 Significant",
        "number": 55,
        "route_id": "M15-S-RushHour",
        "postboxes": 1,
        "revenue": 0.0,
        "address": "WATER ST/GOUVERNEUR LN"
      },
      "geometry": {
        "type": "Point",
        "coordinates": [
          -74.00826,
          40.704669
        ]
      }
    },
    {
      "type": "Feature",
      "properties": {
        "label": "T1 Significant",
        "layer": "T1 Significant",
        "number": 56,
        "route_id": "M15-S-RushHour",
        "postboxes": 1,
        "revenue": 0.0,
        "address": "BROAD ST/SOUTH ST"
      },
      "geometry": {
        "type": "Point",
        "coordinates": [
          -74.011222,
          40.701875
        ]
      }
    },
    {
      "type": "Feature",
      "properties": {
        "label": "T1 Significant",
        "layer": "T1 Significant",
        "number": 57,
        "route_id": "M15-S-RushHour",
        "postboxes": 1,
        "revenue": 2.9,
        "address": "SOUTH ST/WHITEHALL ST"
      },
      "geometry": {
        "type": "Point",
        "coordinates": [
          -74.012226,
          40.701609
        ]
      }
    },
    {
      "type": "Feature",
      "properties": {
        "label": "T2 Normal",
        "layer": "T2 Normal",
        "number": 1,
        "route_id": "M15-S-RushHour",
        "postboxes": 1,
        "revenue": 11.6,
        "address": "2 AV/E 125 ST"
      },
      "geometry": {
        "type": "Point",
        "coordinates": [
          -73.933855,
          40.802473
        ]
      }
    },
    {
      "type": "Feature",
      "properties": {
        "label": "T2 Normal",
        "layer": "T2 Normal",
        "number": 2,
        "route_id": "M15-S-RushHour",
        "postboxes": 1,
        "revenue": 8.7,
        "address": "2 AV/E 122 ST"
      },
      "geometry": {
        "type": "Point",
        "coordinates": [
          -73.935233,
          40.800564
        ]
      }
    },
    {
      "type": "Feature",
      "properties": {
        "label": "T2 Normal",
        "layer": "T2 Normal",
        "number": 3,
        "route_id": "M15-S-RushHour",
        "postboxes": 1,
        "revenue": 2.9,
        "address": "2 AV/E 119 ST"
      },
      "geometry": {
        "type": "Point",
        "coordinates": [
          -73.93661,
          40.798669
        ]
      }
    },
    {
      "type": "Feature",
      "properties": {
        "label": "T2 Normal",
        "layer": "T2 Normal",
        "number": 4,
        "route_id": "M15-S-RushHour",
        "postboxes": 1,
        "revenue": 14.5,
        "address": "2 AV/E 116 ST"
      },
      "geometry": {
        "type": "Point",
        "coordinates": [
          -73.93804,
          40.796723
        ]
      }
    },
    {
      "type": "Feature",
      "properties": {
        "label": "T2 Normal",
        "layer": "T2 Normal",
        "number": 6,
        "route_id": "M15-S-RushHour",
        "postboxes": 1,
        "revenue": 10.63,
        "address": "2 AV/E 108 ST"
      },
      "geometry": {
        "type": "Point",
        "coordinates": [
          -73.941736,
          40.791673
        ]
      }
    },
    {
      "type": "Feature",
      "properties": {
        "label": "T2 Normal",
        "layer": "T2 Normal",
        "number": 7,
        "route_id": "M15-S-RushHour",
        "postboxes": 1,
        "revenue": 11.6,
        "address": "2 AV/E 103 ST"
      },
      "geometry": {
        "type": "Point",
        "coordinates": [
          -73.944015,
          40.788563
        ]
      }
    },
    {
      "type": "Feature",
      "properties": {
        "label": "T2 Normal",
        "layer": "T2 Normal",
        "number": 8,
        "route_id": "M15-S-RushHour",
        "postboxes": 1,
        "revenue": 2.9,
        "address": "2 AV/E 101 ST"
      },
      "geometry": {
        "type": "Point",
        "coordinates": [
          -73.944893,
          40.787352
        ]
      }
    },
    {
      "type": "Feature",
      "properties": {
        "label": "T2 Normal",
        "layer": "T2 Normal",
        "number": 10,
        "route_id": "M15-S-RushHour",
        "postboxes": 1,
        "revenue": 18.37,
        "address": "2 AV/E 96 ST"
      },
      "geometry": {
        "type": "Point",
        "coordinates": [
          -73.947265,
          40.784201
        ]
      }
    },
    {
      "type": "Feature",
      "properties": {
        "label": "T2 Normal",
        "layer": "T2 Normal",
        "number": 11,
        "route_id": "M15-S-RushHour",
        "postboxes": 1,
        "revenue": 6.77,
        "address": "2 AV/E 94 ST"
      },
      "geometry": {
        "type": "Point",
        "coordinates": [
          -73.948302,
          40.782675
        ]
      }
    },
    {
      "type": "Feature",
      "properties": {
        "label": "T2 Normal",
        "layer": "T2 Normal",
        "number": 12,
        "route_id": "M15-S-RushHour",
        "postboxes": 1,
        "revenue": 3.87,
        "address": "2 AV/E 92 ST"
      },
      "geometry": {
        "type": "Point",
        "coordinates": [
          -73.949159,
          40.78151
        ]
      }
    },
    {
      "type": "Feature",
      "properties": {
        "label": "T2 Normal",
        "layer": "T2 Normal",
        "number": 13,
        "route_id": "M15-S-RushHour",
        "postboxes": 1,
        "revenue": 2.9,
        "address": "2 AV/E 89 ST"
      },
      "geometry": {
        "type": "Point",
        "coordinates": [
          -73.950523,
          40.779657
        ]
      }
    },
    {
      "type": "Feature",
      "properties": {
        "label": "T2 Normal",
        "layer": "T2 Normal",
        "number": 14,
        "route_id": "M15-S-RushHour",
        "postboxes": 1,
        "revenue": 7.73,
        "address": "2 AV/E 87 ST"
      },
      "geometry": {
        "type": "Point",
        "coordinates": [
          -73.95143,
          40.77851
        ]
      }
    },
    {
      "type": "Feature",
      "properties": {
        "label": "T2 Normal",
        "layer": "T2 Normal",
        "number": 15,
        "route_id": "M15-S-RushHour",
        "postboxes": 1,
        "revenue": 3.87,
        "address": "2 AV/E 84 ST"
      },
      "geometry": {
        "type": "Point",
        "coordinates": [
          -73.952953,
          40.776302
        ]
      }
    },
    {
      "type": "Feature",
      "properties": {
        "label": "T2 Normal",
        "layer": "T2 Normal",
        "number": 16,
        "route_id": "M15-S-RushHour",
        "postboxes": 1,
        "revenue": 2.9,
        "address": "2 AV/E 82 ST"
      },
      "geometry": {
        "type": "Point",
        "coordinates": [
          -73.95387,
          40.775053
        ]
      }
    },
    {
      "type": "Feature",
      "properties": {
        "label": "T2 Normal",
        "layer": "T2 Normal",
        "number": 17,
        "route_id": "M15-S-RushHour",
        "postboxes": 1,
        "revenue": 2.9,
        "address": "2 AV/E 78 ST"
      },
      "geometry": {
        "type": "Point",
        "coordinates": [
          -73.955434,
          40.772922
        ]
      }
    },
    {
      "type": "Feature",
      "properties": {
        "label": "T2 Normal",
        "layer": "T2 Normal",
        "number": 18,
        "route_id": "M15-S-RushHour",
        "postboxes": 1,
        "revenue": 8.7,
        "address": "2 AV/E 75 ST"
      },
      "geometry": {
        "type": "Point",
        "coordinates": [
          -73.95695,
          40.770821
        ]
      }
    },
    {
      "type": "Feature",
      "properties": {
        "label": "T2 Normal",
        "layer": "T2 Normal",
        "number": 20,
        "route_id": "M15-S-RushHour",
        "postboxes": 1,
        "revenue": 23.2,
        "address": "2 AV/E 70 ST"
      },
      "geometry": {
        "type": "Point",
        "coordinates": [
          -73.959501,
          40.76733
        ]
      }
    },
    {
      "type": "Feature",
      "properties": {
        "label": "T2 Normal",
        "layer": "T2 Normal",
        "number": 21,
        "route_id": "M15-S-RushHour",
        "postboxes": 1,
        "revenue": 14.5,
        "address": "2 AV/E 68 ST"
      },
      "geometry": {
        "type": "Point",
        "coordinates": [
          -73.960476,
          40.76599
        ]
      }
    },
    {
      "type": "Feature",
      "properties": {
        "label": "T2 Normal",
        "layer": "T2 Normal",
        "number": 23,
        "route_id": "M15-S-RushHour",
        "postboxes": 1,
        "revenue": 8.7,
        "address": "2 AV/E 64 ST"
      },
      "geometry": {
        "type": "Point",
        "coordinates": [
          -73.962314,
          40.763471
        ]
      }
    },
    {
      "type": "Feature",
      "properties": {
        "label": "T2 Normal",
        "layer": "T2 Normal",
        "number": 24,
        "route_id": "M15-S-RushHour",
        "postboxes": 1,
        "revenue": 10.63,
        "address": "2 AV/E 61 ST"
      },
      "geometry": {
        "type": "Point",
        "coordinates": [
          -73.963644,
          40.761701
        ]
      }
    },
    {
      "type": "Feature",
      "properties": {
        "label": "T2 Normal",
        "layer": "T2 Normal",
        "number": 25,
        "route_id": "M15-S-RushHour",
        "postboxes": 1,
        "revenue": 10.63,
        "address": "2 AV/E 57 ST"
      },
      "geometry": {
        "type": "Point",
        "coordinates": [
          -73.965601,
          40.758987
        ]
      }
    },
    {
      "type": "Feature",
      "properties": {
        "label": "T2 Normal",
        "layer": "T2 Normal",
        "number": 26,
        "route_id": "M15-S-RushHour",
        "postboxes": 1,
        "revenue": 5.8,
        "address": "2 AV/E 54 ST"
      },
      "geometry": {
        "type": "Point",
        "coordinates": [
          -73.966937,
          40.757149
        ]
      }
    },
    {
      "type": "Feature",
      "properties": {
        "label": "T2 Normal",
        "layer": "T2 Normal",
        "number": 27,
        "route_id": "M15-S-RushHour",
        "postboxes": 1,
        "revenue": 13.53,
        "address": "2 AV/E 50 ST"
      },
      "geometry": {
        "type": "Point",
        "coordinates": [
          -73.968787,
          40.754623
        ]
      }
    },
    {
      "type": "Feature",
      "properties": {
        "label": "T2 Normal",
        "layer": "T2 Normal",
        "number": 28,
        "route_id": "M15-S-RushHour",
        "postboxes": 1,
        "revenue": 3.87,
        "address": "2 AV/E 46 ST"
      },
      "geometry": {
        "type": "Point",
        "coordinates": [
          -73.970371,
          40.752481
        ]
      }
    },
    {
      "type": "Feature",
      "properties": {
        "label": "T2 Normal",
        "layer": "T2 Normal",
        "number": 29,
        "route_id": "M15-S-RushHour",
        "postboxes": 1,
        "revenue": 14.5,
        "address": "2 AV/E 42 ST"
      },
      "geometry": {
        "type": "Point",
        "coordinates": [
          -73.972517,
          40.749502
        ]
      }
    },
    {
      "type": "Feature",
      "properties": {
        "label": "T2 Normal",
        "layer": "T2 Normal",
        "number": 30,
        "route_id": "M15-S-RushHour",
        "postboxes": 1,
        "revenue": 3.87,
        "address": "2 AV/E 39 ST"
      },
      "geometry": {
        "type": "Point",
        "coordinates": [
          -73.97388,
          40.747638
        ]
      }
    },
    {
      "type": "Feature",
      "properties": {
        "label": "T2 Normal",
        "layer": "T2 Normal",
        "number": 31,
        "route_id": "M15-S-RushHour",
        "postboxes": 1,
        "revenue": 13.53,
        "address": "2 AV/E 36 ST"
      },
      "geometry": {
        "type": "Point",
        "coordinates": [
          -73.974949,
          40.746181
        ]
      }
    },
    {
      "type": "Feature",
      "properties": {
        "label": "T2 Normal",
        "layer": "T2 Normal",
        "number": 32,
        "route_id": "M15-S-RushHour",
        "postboxes": 1,
        "revenue": 7.25,
        "address": "2 AV/E 33 ST"
      },
      "geometry": {
        "type": "Point",
        "coordinates": [
          -73.976632,
          40.743851
        ]
      }
    },
    {
      "type": "Feature",
      "properties": {
        "label": "T2 Normal",
        "layer": "T2 Normal",
        "number": 33,
        "route_id": "M15-S-RushHour",
        "postboxes": 1,
        "revenue": 5.8,
        "address": "2 AV/E 31 ST"
      },
      "geometry": {
        "type": "Point",
        "coordinates": [
          -73.977523,
          40.742638
        ]
      }
    },
    {
      "type": "Feature",
      "properties": {
        "label": "T2 Normal",
        "layer": "T2 Normal",
        "number": 34,
        "route_id": "M15-S-RushHour",
        "postboxes": 1,
        "revenue": 15.95,
        "address": "2 AV/E 28 ST"
      },
      "geometry": {
        "type": "Point",
        "coordinates": [
          -73.978641,
          40.741114
        ]
      }
    },
    {
      "type": "Feature",
      "properties": {
        "label": "T2 Normal",
        "layer": "T2 Normal",
        "number": 35,
        "route_id": "M15-S-RushHour",
        "postboxes": 1,
        "revenue": 3.62,
        "address": "2 AV/E 25 ST"
      },
      "geometry": {
        "type": "Point",
        "coordinates": [
          -73.980226,
          40.738933
        ]
      }
    },
    {
      "type": "Feature",
      "properties": {
        "label": "T2 Normal",
        "layer": "T2 Normal",
        "number": 36,
        "route_id": "M15-S-RushHour",
        "postboxes": 1,
        "revenue": 13.78,
        "address": "2 AV/E 23 ST"
      },
      "geometry": {
        "type": "Point",
        "coordinates": [
          -73.981202,
          40.737516
        ]
      }
    },
    {
      "type": "Feature",
      "properties": {
        "label": "T2 Normal",
        "layer": "T2 Normal",
        "number": 37,
        "route_id": "M15-S-RushHour",
        "postboxes": 1,
        "revenue": 1.93,
        "address": "2 AV/E 20 ST"
      },
      "geometry": {
        "type": "Point",
        "coordinates": [
          -73.982489,
          40.735746
        ]
      }
    },
    {
      "type": "Feature",
      "properties": {
        "label": "T2 Normal",
        "layer": "T2 Normal",
        "number": 38,
        "route_id": "M15-S-RushHour",
        "postboxes": 1,
        "revenue": 5.8,
        "address": "2 AV/E 17 ST"
      },
      "geometry": {
        "type": "Point",
        "coordinates": [
          -73.983769,
          40.733996
        ]
      }
    },
    {
      "type": "Feature",
      "properties": {
        "label": "T2 Normal",
        "layer": "T2 Normal",
        "number": 39,
        "route_id": "M15-S-RushHour",
        "postboxes": 1,
        "revenue": 10.63,
        "address": "2 AV/E 14 ST"
      },
      "geometry": {
        "type": "Point",
        "coordinates": [
          -73.984903,
          40.732494
        ]
      }
    },
    {
      "type": "Feature",
      "properties": {
        "label": "T2 Normal",
        "layer": "T2 Normal",
        "number": 40,
        "route_id": "M15-S-RushHour",
        "postboxes": 1,
        "revenue": 1.93,
        "address": "2 AV/E 12 ST"
      },
      "geometry": {
        "type": "Point",
        "coordinates": [
          -73.986156,
          40.730796
        ]
      }
    },
    {
      "type": "Feature",
      "properties": {
        "label": "T2 Normal",
        "layer": "T2 Normal",
        "number": 41,
        "route_id": "M15-S-RushHour",
        "postboxes": 1,
        "revenue": 7.25,
        "address": "2 AV/E 9 ST"
      },
      "geometry": {
        "type": "Point",
        "coordinates": [
          -73.987523,
          40.728891
        ]
      }
    },
    {
      "type": "Feature",
      "properties": {
        "label": "T2 Normal",
        "layer": "T2 Normal",
        "number": 45,
        "route_id": "M15-S-RushHour",
        "postboxes": 1,
        "revenue": 4.83,
        "address": "ALLEN ST/EAST HOUSTON ST"
      },
      "geometry": {
        "type": "Point",
        "coordinates": [
          -73.98899,
          40.722516
        ]
      }
    },
    {
      "type": "Feature",
      "properties": {
        "label": "T2 Normal",
        "layer": "T2 Normal",
        "number": 46,
        "route_id": "M15-S-RushHour",
        "postboxes": 1,
        "revenue": 7.25,
        "address": "ALLEN ST/DELANCEY ST"
      },
      "geometry": {
        "type": "Point",
        "coordinates": [
          -73.990466,
          40.719411
        ]
      }
    },
    {
      "type": "Feature",
      "properties": {
        "label": "T2 Normal",
        "layer": "T2 Normal",
        "number": 47,
        "route_id": "M15-S-RushHour",
        "postboxes": 1,
        "revenue": 11.6,
        "address": "ALLEN ST/HESTER ST"
      },
      "geometry": {
        "type": "Point",
        "coordinates": [
          -73.992021,
          40.716371
        ]
      }
    },
    {
      "type": "Feature",
      "properties": {
        "label": "T2 Normal",
        "layer": "T2 Normal",
        "number": 48,
        "route_id": "M15-S-RushHour",
        "postboxes": 1,
        "revenue": 2.9,
        "address": "ALLEN ST/CANAL ST"
      },
      "geometry": {
        "type": "Point",
        "coordinates": [
          -73.992805,
          40.714855
        ]
      }
    },
    {
      "type": "Feature",
      "properties": {
        "label": "T2 Normal",
        "layer": "T2 Normal",
        "number": 49,
        "route_id": "M15-S-RushHour",
        "postboxes": 1,
        "revenue": 2.9,
        "address": "PIKE ST/MADISON ST"
      },
      "geometry": {
        "type": "Point",
        "coordinates": [
          -73.992622,
          40.712625
        ]
      }
    },
    {
      "type": "Feature",
      "properties": {
        "label": "T2 Outlier",
        "layer": "T2 Outlier",
        "number": 0,
        "route_id": "M15-S-RushHour",
        "postboxes": 1,
        "revenue": 2.9,
        "address": "E 126 ST/2 AV"
      },
      "geometry": {
        "type": "Point",
        "coordinates": [
          -73.932451,
          40.80323
        ]
      }
    },
    {
      "type": "Feature",
      "properties": {
        "label": "T2 Outlier",
        "layer": "T2 Outlier",
        "number": 5,
        "route_id": "M15-S-RushHour",
        "postboxes": 1,
        "revenue": 0.0,
        "address": "2 AV/E 111 ST"
      },
      "geometry": {
        "type": "Point",
        "coordinates": [
          -73.940328,
          40.793625
        ]
      }
    },
    {
      "type": "Feature",
      "properties": {
        "label": "T2 Outlier",
        "layer": "T2 Outlier",
        "number": 9,
        "route_id": "M15-S-RushHour",
        "postboxes": 1,
        "revenue": 0.0,
        "address": "2 AV/E 97 ST"
      },
      "geometry": {
        "type": "Point",
        "coordinates": [
          -73.946555,
          40.785065
        ]
      }
    },
    {
      "type": "Feature",
      "properties": {
        "label": "T2 Outlier",
        "layer": "T2 Outlier",
        "number": 19,
        "route_id": "M15-S-RushHour",
        "postboxes": 1,
        "revenue": 0.0,
        "address": "2 AV/E 72 ST"
      },
      "geometry": {
        "type": "Point",
        "coordinates": [
          -73.958485,
          40.768727
        ]
      }
    },
    {
      "type": "Feature",
      "properties": {
        "label": "T2 Outlier",
        "layer": "T2 Outlier",
        "number": 22,
        "route_id": "M15-S-RushHour",
        "postboxes": 1,
        "revenue": 0.97,
        "address": "2 AV/E 66 ST"
      },
      "geometry": {
        "type": "Point",
        "coordinates": [
          -73.961439,
          40.764664
        ]
      }
    },
    {
      "type": "Feature",
      "properties": {
        "label": "T2 Outlier",
        "layer": "T2 Outlier",
        "number": 42,
        "route_id": "M15-S-RushHour",
        "postboxes": 1,
        "revenue": 1.93,
        "address": "2 AV/E 6 ST"
      },
      "geometry": {
        "type": "Point",
        "coordinates": [
          -73.988785,
          40.727161
        ]
      }
    },
    {
      "type": "Feature",
      "properties": {
        "label": "T2 Outlier",
        "layer": "T2 Outlier",
        "number": 43,
        "route_id": "M15-S-RushHour",
        "postboxes": 1,
        "revenue": 0.0,
        "address": "2 AV/E 3 ST"
      },
      "geometry": {
        "type": "Point",
        "coordinates": [
          -73.990108,
          40.725343
        ]
      }
    },
    {
      "type": "Feature",
      "properties": {
        "label": "T2 Outlier",
        "layer": "T2 Outlier",
        "number": 44,
        "route_id": "M15-S-RushHour",
        "postboxes": 1,
        "revenue": 0.0,
        "address": "EAST HOUSTON ST/FORSYTH ST"
      },
      "geometry": {
        "type": "Point",
        "coordinates": [
          -73.990427,
          40.723329
        ]
      }
    },
    {
      "type": "Feature",
      "properties": {
        "label": "T2 Outlier",
        "layer": "T2 Outlier",
        "number": 50,
        "route_id": "M15-S-RushHour",
        "postboxes": 1,
        "revenue": 5.8,
        "address": "MADISON ST/MARKET ST"
      },
      "geometry": {
        "type": "Point",
        "coordinates": [
          -73.994744,
          40.712325
        ]
      }
    },
    {
      "type": "Feature",
      "properties": {
        "label": "T2 Significant",
        "layer": "T2 Significant",
        "number": 51,
        "route_id": "M15-S-RushHour",
        "postboxes": 1,
        "revenue": 0.0,
        "address": "MADISON ST/CATHERINE ST"
      },
      "geometry": {
        "type": "Point",
        "coordinates": [
          -73.997462,
          40.712064
        ]
      }
    },
    {
      "type": "Feature",
      "properties": {
        "label": "T2 Significant",
        "layer": "T2 Significant",
        "number": 52,
        "route_id": "M15-S-RushHour",
        "postboxes": 1,
        "revenue": 2.9,
        "address": "MADISON ST/SAINT JAMES PL"
      },
      "geometry": {
        "type": "Point",
        "coordinates": [
          -73.99943,
          40.711883
        ]
      }
    },
    {
      "type": "Feature",
      "properties": {
        "label": "T2 Significant",
        "layer": "T2 Significant",
        "number": 53,
        "route_id": "M15-S-RushHour",
        "postboxes": 1,
        "revenue": 0.0,
        "address": "PEARL ST / PEARL ST"
      },
      "geometry": {
        "type": "Point",
        "coordinates": [
          -74.000822,
          40.710832
        ]
      }
    },
    {
      "type": "Feature",
      "properties": {
        "label": "T2 Significant",
        "layer": "T2 Significant",
        "number": 54,
        "route_id": "M15-S-RushHour",
        "postboxes": 1,
        "revenue": 0.0,
        "address": "PEARL ST/FULTON ST"
      },
      "geometry": {
        "type": "Point",
        "coordinates": [
          -74.004,
          40.707631
        ]
      }
    },
    {
      "type": "Feature",
      "properties": {
        "label": "T2 Significant",
        "layer": "T2 Significant",
        "number": 55,
        "route_id": "M15-S-RushHour",
        "postboxes": 1,
        "revenue": 0.0,
        "address": "WATER ST/GOUVERNEUR LN"
      },
      "geometry": {
        "type": "Point",
        "coordinates": [
          -74.00826,
          40.704669
        ]
      }
    },
    {
      "type": "Feature",
      "properties": {
        "label": "T2 Significant",
        "layer": "T2 Significant",
        "number": 56,
        "route_id": "M15-S-RushHour",
        "postboxes": 1,
        "revenue": 0.0,
        "address": "BROAD ST/SOUTH ST"
      },
      "geometry": {
        "type": "Point",
        "coordinates": [
          -74.011222,
          40.701875
        ]
      }
    },
    {
      "type": "Feature",
      "properties": {
        "label": "T2 Significant",
        "layer": "T2 Significant",
        "number": 57,
        "route_id": "M15-S-RushHour",
        "postboxes": 1,
        "revenue": 2.9,
        "address": "SOUTH ST/WHITEHALL ST"
      },
      "geometry": {
        "type": "Point",
        "coordinates": [
          -74.012226,
          40.701609
        ]
      }
    }
  ]
}